{"version": 0.6, "generator": "Overpass API 0.7.62.8 e802775f", "osm3s": {"timestamp_osm_base": "2026-01-17T20:22:53Z", "copyright": "The data included in this document is from www.openstreetmap.org. The data is made available under ODbL."}, "elements": [{"type": "node", "id": 459799097, "lat": 51.5507388, "lon": -0.0846814}, {"type": "node", "id": 1993922359, "lat": 51.5459829, "lon": -0.083454}, {"type": "node", "id": 1993922362, "lat": 51.5459863, "lon": -0.0832588}, {"type": "node", "id": 1993922368, "lat": 51.5458658, "lon": -0.0832762}, {"type": "node", "id": 1993922380, "lat": 51.5459754, "lon": -0.083572}, {"type": "node", "id": 1993922389, "lat": 51.5458907, "lon": -0.0835625}, {"type": "node", "id": 1993932989, "lat": 51.5459847, "lon": -0.0832554}, {"type": "node", "id": 2078974393, "lat": 51.5448981, "lon": -0.0882138}, {"type": "node", "id": 2078974427, "lat": 51.5449577, "lon": -0.0883869}, {"type": "node", "id": 2078974482, "lat": 51.5449218, "lon": -0.0882816}, {"type": "node", "id": 2078974507, "lat": 51.5449785, "lon": -0.0881475}, {"type": "node", "id": 2078974510, "lat": 51.5450093, "lon": -0.0883132}, {"type": "node", "id": 2078995452, "lat": 51.5437254, "lon": -0.0898889}, {"type": "node", "id": 2078995455, "lat": 51.5438205, "lon": -0.0899305}, {"type": "node", "id": 2078995456, "lat": 51.5438221, "lon": -0.0897709}, {"type": "node", "id": 2078995458, "lat": 51.5438347, "lon": -0.0898849}, {"type": "node", "id": 2078995459, "lat": 51.5437396, "lon": -0.0900524}, {"type": "node", "id": 2078995473, "lat": 51.5437688, "lon": -0.0898165}, {"type": "node", "id": 2078995474, "lat": 51.5437658, "lon": -0.0898034}, {"type": "node", "id": 2078995478, "lat": 51.5436295, "lon": -0.0898661}, {"type": "node", "id": 2078995481, "lat": 51.5436695, "lon": -0.0898084}, {"type": "node", "id": 2078995484, "lat": 51.5438363, "lon": -0.089846}, {"type": "node", "id": 2258998543, "lat": 51.549108, "lon": -0.0912586}, {"type": "node", "id": 2258998548, "lat": 51.5491475, "lon": -0.0913961}, {"type": "node", "id": 2258998571, "lat": 51.5491952, "lon": -0.0913308}, {"type": "node", "id": 2259001245, "lat": 51.5505653, "lon": -0.0866357}, {"type": "node", "id": 2259001251, "lat": 51.5505548, "lon": -0.0864636}, {"type": "node", "id": 2364681549, "lat": 51.548442, "lon": -0.0877134}, {"type": "node", "id": 2364681552, "lat": 51.5483415, "lon": -0.0877651}, {"type": "node", "id": 2364681561, "lat": 51.5484677, "lon": -0.0878429}, {"type": "node", "id": 2364681563, "lat": 51.5483672, "lon": -0.0878945}, {"type": "node", "id": 2364702709, "lat": 51.5490614, "lon": -0.0912834}, {"type": "node", "id": 2364702712, "lat": 51.5492073, "lon": -0.0912345}, {"type": "node", "id": 2364702714, "lat": 51.549113, "lon": -0.0912075}, {"type": "node", "id": 2364702716, "lat": 51.5491843, "lon": -0.0913597}, {"type": "node", "id": 2364702718, "lat": 51.5492011, "lon": -0.0912982}, {"type": "node", "id": 2364702720, "lat": 51.5490894, "lon": -0.0914259}, {"type": "node", "id": 2364702722, "lat": 51.5491683, "lon": -0.0913819}, {"type": "node", "id": 2490266006, "lat": 51.5437003, "lon": -0.0899858}, {"type": "node", "id": 3370832364, "lat": 51.5483557, "lon": -0.0877578, "tags": {"entrance": "yes", "source": "Survey of 2013-09-24"}}, {"type": "node", "id": 3370832365, "lat": 51.5483639, "lon": -0.0878781}, {"type": "node", "id": 3370832367, "lat": 51.5483923, "lon": -0.0877389, "tags": {"entrance": "yes", "source": "Survey of 2013-09-24"}}, {"type": "node", "id": 3370832369, "lat": 51.5484287, "lon": -0.0877203, "tags": {"entrance": "main", "source": "Survey of 2013-09-24"}}, {"type": "node", "id": 3761504666, "lat": 51.5506791, "lon": -0.0865494}, {"type": "node", "id": 3761504671, "lat": 51.5506358, "lon": -0.0864023}, {"type": "node", "id": 4002224564, "lat": 51.5495145, "lon": -0.0869091}, {"type": "node", "id": 4002224565, "lat": 51.5494974, "lon": -0.0868155}, {"type": "node", "id": 4002224566, "lat": 51.5495078, "lon": -0.0868107}, {"type": "node", "id": 4002224567, "lat": 51.5494907, "lon": -0.0866966}, {"type": "node", "id": 4002224568, "lat": 51.5493742, "lon": -0.086741}, {"type": "node", "id": 4002224569, "lat": 51.5494093, "lon": -0.0869523}, {"type": "node", "id": 4002224577, "lat": 51.549394, "lon": -0.0868602}, {"type": "node", "id": 4639875842, "lat": 51.5506345, "lon": -0.0846381}, {"type": "node", "id": 4639875843, "lat": 51.5507528, "lon": -0.0845545}, {"type": "node", "id": 4639875844, "lat": 51.5506918, "lon": -0.0842984}, {"type": "node", "id": 4639875845, "lat": 51.5506676, "lon": -0.0843033}, {"type": "node", "id": 4639875846, "lat": 51.5506323, "lon": -0.0846595}, {"type": "node", "id": 9271846585, "lat": 51.5506612, "lon": -0.0843683}, {"type": "node", "id": 9271846586, "lat": 51.5506512, "lon": -0.0844716}, {"type": "way", "id": 188766830, "nodes": [1993922380, 1993922389, 1993922368, 1993932989, 1993922362, 1993922359, 1993922380], "tags": {"addr:city": "London", "addr:housename": "The Perseverance", "addr:housenumber": "194", "addr:postcode": "N1 3HT", "addr:street": "Southgate Road", "amenity": "pub", "building": "retail", "fhrs:id": "536817", "name": "The Hunter S", "outdoor_seating": "yes"}}, {"type": "way", "id": 197691952, "nodes": [2078974510, 2078974427, 2078974482, 2078974393, 2078974507, 2078974510], "tags": {"addr:city": "London", "addr:floor": "0", "addr:housenumber": "382", "addr:postcode": "N1 3PF", "addr:street": "Essex Road", "amenity": "pub", "beer_garden": "yes", "building": "yes", "fhrs:id": "1065766", "name": "Godet", "source:addr": "FHRS Open Data"}}, {"type": "way", "id": 197695792, "nodes": [2078995458, 2078995455, 2078995459, 2490266006, 2078995478, 2078995481, 2078995452, 2078995473, 2078995474, 2078995456, 2078995484, 2078995458], "tags": {"addr:city": "London", "addr:country": "GB", "addr:housenumber": "340-342", "addr:postcode": "N1 3PB", "addr:street": "Essex Road", "amenity": "pub", "building": "yes", "check_date": "2025-05-11", "fhrs:id": "1367928", "food": "yes", "name": "The Brave", "toilets": "yes", "toilets:access": "customers", "website": "https://www.thebravelondon.co.uk/"}}, {"type": "way", "id": 227827311, "nodes": [2364681552, 3370832364, 3370832367, 3370832369, 2364681549, 2364681561, 2364681563, 3370832365, 2364681552], "tags": {"addr:city": "London", "addr:country": "GB", "addr:housenumber": "59", "addr:postcode": "N1 4QU", "addr:street": "Newington Green Road", "air_conditioning": "yes", "amenity": "pub", "building": "yes", "building:levels": "3", "check_date": "2024-08-14", "cuisine": "american;pizza", "diet:vegetarian": "yes", "dog": "yes", "fhrs:id": "416653", "food": "yes", "indoor_seating": "yes", "name": "The Alma", "outdoor_seating": "yes", "phone": "+44 20 7226 3531", "smoking": "no", "source": "Survey of 2015-02-24", "website": "https://thealmaislington.com", "wheelchair": "yes"}}, {"type": "way", "id": 227830213, "nodes": [2364702720, 2258998548, 2364702722, 2364702716, 2258998571, 2364702718, 2364702712, 2364702714, 2258998543, 2364702709, 2364702720], "tags": {"addr:city": "London", "addr:country": "GB", "addr:housenumber": "75", "addr:postcode": "N5 2NN", "addr:street": "Grosvenor Avenue", "amenity": "pub", "building": "yes", "building:levels": "3", "building:material": "brick", "check_date": "2025-06-23", "contact:phone": "+44 20 7354 9532", "contact:website": "http://www.snootyfoxlondon.co.uk/", "diet:vegan": "no", "diet:vegetarian": "yes", "fhrs:id": "416472", "food": "yes", "indoor_seating": "yes", "name": "The Snooty Fox", "opening_hours": "Mo-Th 16:00-23:00; Fr 16:00-01:00; Sa 12:00-01:00; Su 12:00-22:30", "outdoor_seating": "yes", "roof:colour": "silver", "roof:shape": "flat"}}, {"type": "way", "id": 377056423, "nodes": [3761504671, 3761504666, 2259001245, 2259001251, 3761504671], "tags": {"addr:city": "London", "addr:country": "GB", "addr:housenumber": "125", "addr:postcode": "N1 4RA", "addr:street": "Newington Green Road", "amenity": "pub", "building": "yes", "building:levels": "3", "building:material": "brick", "check_date": "2025-08-19", "contact:phone": "+44 20 7096 2250", "contact:website": "https://www.crafted-social.co.uk/cellar-taps-newington-green", "cuisine": "pizza;burger", "diet:vegan": "yes", "diet:vegetarian": "yes", "dog": "leashed", "fhrs:id": "1439965", "food": "yes", "indoor_seating": "yes", "name": "The Cellar Taps", "old_name": "The Edinburgh", "opening_hours": "Su-Th 11:00-23:00; Fr-Sa 11:00-24:00", "operator": "Stonegate", "operator:wikidata": "Q7619176", "outdoor_seating": "yes", "roof:colour": "grey", "roof:levels": "0", "roof:shape": "hipped", "website": "https://www.crafted-social.co.uk/cellar-taps-newington-green", "wheelchair": "limited"}}, {"type": "way", "id": 397429638, "nodes": [4002224564, 4002224565, 4002224566, 4002224567, 4002224568, 4002224577, 4002224569, 4002224564], "tags": {"addr:city": "London", "addr:housenumber": "98", "addr:postcode": "N1 4RG", "addr:street": "Newington Green Road", "amenity": "pub", "building": "yes", "building:levels": "3", "building:material": "brick", "contact:phone": "+44 20 7354 9501", "indoor_seating": "yes", "name": "The Weavers Arms", "outdoor_seating": "yes", "ref:GB:uprn": "5300066884", "roof:colour": "black", "roof:shape": "hipped", "smoking": "outside"}}, {"type": "way", "id": 469688061, "nodes": [459799097, 4639875843, 4639875844, 4639875845, 9271846585, 9271846586, 4639875842, 4639875846, 459799097], "tags": {"addr:city": "London", "addr:housenumber": "92", "addr:postcode": "N1 4PR", "addr:street": "Mildmay Park", "amenity": "pub", "building": "yes", "building:levels": "3", "check_date": "2024-10-17", "diet:vegetarian": "yes", "fhrs:id": "447763", "food": "yes", "indoor_seating": "yes", "internet_access": "wlan", "name": "Lady Mildmay", "old_name": "The Dissenting Academy;The Nobody Inn;The Clarendon", "opening_hours": "Mo-Sa 12:00-23:00; Su 12:00-22:00", "opening_hours:kitchen": "Mo-Sa 12:00-15:00,18:00-22:00; Su 12:30-16:00,18:00-21:00", "outdoor_seating": "no", "payment:cash": "no", "payment:credit_cards": "yes", "payment:debit_cards": "yes", "phone": "+44 20 7241 6238", "reservation": "no", "toilets:wheelchair": "yes", "website": "https://www.ladymildmay.com/", "wheelchair": "yes"}}]}