{"version": 0.6, "generator": "Overpass API 0.7.62.8 e802775f", "osm3s": {"timestamp_osm_base": "2026-01-17T20:02:27Z", "copyright": "The data included in this document is from www.openstreetmap.org. The data is made available under ODbL."}, "elements": [{"type": "node", "id": 25597628, "lat": 51.5347892, "lon": -0.1072883, "tags": {"addr:city": "London", "addr:housenumber": "57", "addr:postcode": "N1 0RJ", "addr:street": "Liverpool Road", "amenity": "pub", "fhrs:id": "416973", "indoor_seating": "yes", "name": "The Angelic", "outdoor_seating": "yes", "source:addr": "FHRS Open Data"}}, {"type": "node", "id": 27012806, "lat": 51.5432201, "lon": -0.1033499}, {"type": "node", "id": 30386293, "lat": 51.5600521, "lon": -0.0784346}, {"type": "node", "id": 46714849, "lat": 51.537057, "lon": -0.0884773, "tags": {"addr:city": "London", "addr:housenumber": "55", "addr:postcode": "N1 3DS", "addr:street": "Baring Street", "amenity": "pub", "name": "The Baring Arms", "outdoor_seating": "yes", "smoking": "outside", "source": "survey", "toilets": "yes", "toilets:access": "customers"}}, {"type": "node", "id": 49481347, "lat": 51.5376171, "lon": -0.0869376}, {"type": "node", "id": 52715709, "lat": 51.5487604, "lon": -0.0792072}, {"type": "node", "id": 52755412, "lat": 51.5401086, "lon": -0.0744743, "tags": {"addr:city": "London", "addr:housenumber": "260", "addr:postcode": "E8 4EP", "addr:street": "Haggerston Road", "amenity": "pub", "fhrs:id": "469457", "name": "The Duke of Wellington"}}, {"type": "node", "id": 52813523, "lat": 51.5457619, "lon": -0.0699202}, {"type": "node", "id": 53428908, "lat": 51.5450633, "lon": -0.0682093}, {"type": "node", "id": 91189178, "lat": 51.5575766, "lon": -0.0805619}, {"type": "node", "id": 175684023, "lat": 51.5460243, "lon": -0.1019468, "tags": {"amenity": "pub", "check_date": "2024-12-12", "indoor_seating": "yes", "name": "Hen and Chickens theatre & bar", "outdoor_seating": "yes", "wikidata": "Q5712940", "wikipedia": "en:Hen and Chickens Theatre"}}, {"type": "node", "id": 252938134, "lat": 51.5383918, "lon": -0.0990837}, {"type": "node", "id": 256404255, "lat": 51.5609825, "lon": -0.0740121, "tags": {"addr:city": "London", "addr:country": "GB", "addr:housenumber": "143, 145", "addr:postcode": "N16 0NY", "addr:street": "Stoke Newington High Street", "amenity": "pub", "brand": "Wetherspoon", "brand:wikidata": "Q6109362", "contact:website": "https://www.jdwetherspoon.com/pubs/all-pubs/england/london/the-rochester-castle-stoke-newington", "fhrs:id": "469065", "food": "yes", "indoor_seating": "yes", "name": "The Rochester Castle", "opening_hours": "Su-Th 08:00-24:00; Fr-Sa 08:00-25:00", "outdoor_seating": "yes", "phone": "+44 20 7249 6016", "real_ale": "6", "toilets": "yes", "toilets:access": "customers", "website:menu": "https://order.jdwetherspoon.com/venue/jdw/3/menus", "wheelchair": "limited", "wikidata": "Q26388410"}}, {"type": "node", "id": 262443436, "lat": 51.5620215, "lon": -0.079539, "tags": {"addr:city": "London", "addr:housenumber": "105", "addr:postcode": "N16 0UD", "addr:street": "Stoke Newington Church Street", "amenity": "pub", "contact:twitter": "AuldShill", "drink:guinness": "yes", "email": "info@theauldshillelagh.co.uk", "fhrs:id": "736453", "indoor_seating": "yes", "name": "The Auld Shillelagh", "opening_hours": "Mo-We 12:00-24:00; Th-Sa 12:00-25:00; Su 12:00-24:00", "outdoor_seating": "yes", "phone": "+44 20 7249 5951", "theme": "irish", "toilets:wheelchair": "no", "website": "http://theauldshillelagh.co.uk/", "wheelchair": "limited"}}, {"type": "node", "id": 262637189, "lat": 51.5620757, "lon": -0.0806331}, {"type": "node", "id": 262637210, "lat": 51.5617228, "lon": -0.0735286, "tags": {"addr:city": "London", "addr:housenumber": "178", "addr:postcode": "N16 7JL", "addr:street": "Stoke Newington High Street", "amenity": "pub", "cuisine": "thai", "fhrs:id": "469801", "food": "yes", "name": "Coach & Horses", "real_ale": "3", "wikidata": "Q26647406"}}, {"type": "node", "id": 262637212, "lat": 51.5621708, "lon": -0.0737391}, {"type": "node", "id": 279104455, "lat": 51.53537, "lon": -0.0772439}, {"type": "node", "id": 279104460, "lat": 51.5364009, "lon": -0.080804}, {"type": "node", "id": 299310964, "lat": 51.537413, "lon": -0.1031553, "tags": {"addr:city": "London", "addr:housenumber": "100", "addr:postcode": "N1 0NP", "addr:street": "Upper Street", "addr:suburb": "Islington", "air_conditioning": "yes", "amenity": "pub", "check_date": "2025-08-12", "fhrs:id": "724302", "indoor_seating": "yes", "name": "The Bull", "outdoor_seating": "yes", "payment:credit_cards": "yes", "payment:debit_cards": "yes", "source:addr": "FHRS Open Data"}}, {"type": "node", "id": 299446972, "lat": 51.533833, "lon": -0.1049942}, {"type": "node", "id": 299595796, "lat": 51.5375887, "lon": -0.1004346, "tags": {"amenity": "pub", "check_date": "2024-09-12", "indoor_seating": "yes", "name": "The King's Head", "outdoor_seating": "yes", "wikidata": "Q26670342"}}, {"type": "node", "id": 302410081, "lat": 51.5391958, "lon": -0.106895, "tags": {"addr:city": "London", "addr:housenumber": "209 \u2013 211", "addr:interpolation": "odd", "addr:postcode": "N1 1LX", "addr:street": "Liverpool Road", "alt_name": "The Foxglove Free House", "amenity": "pub", "cuisine": "british", "email": "contact@thefoxglove.co.uk", "name": "The Foxglove", "opening_hours": "Mo-Tu 16:00-22:00; We 16:00-23:00; Th-Sa 12:00-23:00; Su 12:00-21:00", "phone": "+442076097129", "smoking": "outside", "website": "https://www.thefoxglove.co.uk/"}}, {"type": "node", "id": 305415323, "lat": 51.5487172, "lon": -0.1069806, "tags": {"addr:city": "London", "addr:housenumber": "54", "addr:postcode": "N7 8JL", "addr:street": "Holloway Road", "amenity": "pub", "fhrs:id": "535764", "name": "The Lamb"}}, {"type": "node", "id": 305415324, "lat": 51.5479977, "lon": -0.1065621, "tags": {"addr:city": "London", "addr:floor": "0", "addr:housenumber": "97-99", "addr:postcode": "N7 8LT", "addr:street": "Holloway Road", "amenity": "pub", "fhrs:id": "1036090", "name": "House of Hammerton", "opening_hours": "Mo-Th 16:00-23:30; Fr 16:00-00:00; Sa 14:00-00:00; Su 14:00-22:00", "operator": "Hammerton Brewery", "website": "https://hammertonbrewery.co.uk/site/about/", "wheelchair": "no"}}, {"type": "node", "id": 305415325, "lat": 51.5463365, "lon": -0.1087488, "tags": {"addr:city": "London", "addr:postcode": "N7 8PR", "addr:street": "Liverpool Road", "amenity": "pub", "name": "The Duchess of Kent", "toilets": "yes", "toilets:access": "customers"}}, {"type": "node", "id": 308838887, "lat": 51.5332599, "lon": -0.0984678}, {"type": "node", "id": 331298014, "lat": 51.5373158, "lon": -0.1095229, "tags": {"addr:city": "London", "addr:housenumber": "116", "addr:postcode": "N1 0EB", "addr:street": "Cloudesley Road", "addr:suburb": "Islington", "amenity": "pub", "brand": "Fuller's", "brand:wikidata": "Q5253950", "fhrs:id": "416983", "name": "The Crown", "opening_hours": "Mo-Sa 12:00-23:00; Su 12:00-22:30", "phone": "+44 20 7837 7107", "source:addr": "FHRS Open Data", "toilets": "yes", "toilets:access": "customers", "website": "https://www.crownislington.co.uk/", "wikidata": "Q17361843", "wikimedia_commons": "Category:The Crown, Islington", "wikipedia": "en:The Crown, Islington"}}, {"type": "node", "id": 331318827, "lat": 51.5389818, "lon": -0.1069786, "tags": {"addr:city": "London", "addr:housenumber": "201-203", "addr:postcode": "N1 1LX", "addr:street": "Liverpool Road", "addr:suburb": "Islington", "amenity": "pub", "contact:facebook": "http://www.facebook.com/theregentpub", "contact:instagram": "https://www.instagram.com/theregent/", "contact:twitter": "http://twitter.com/TheRegentPub", "cuisine": "pizza", "fhrs:id": "417112", "internet_access": "wlan", "name": "The Regent", "opening_hours": "Mo-We 15:00-23:00; Th 12:00-23:00; Fr-Sa 12:00-00:00; Su 12:00-22:30", "source:addr": "FHRS Open Data", "toilets": "yes", "toilets:access": "customers", "website": "https://theregentpub.com/"}}, {"type": "node", "id": 339394917, "lat": 51.5436556, "lon": -0.1020128, "tags": {"amenity": "pub", "name": "The Compton Arms", "website": "https://www.comptonarms.co.uk/"}}, {"type": "node", "id": 339857615, "lat": 51.5466093, "lon": -0.0986125}, {"type": "node", "id": 339857617, "lat": 51.5466606, "lon": -0.0983875}, {"type": "node", "id": 339857621, "lat": 51.546597, "lon": -0.0983501}, {"type": "node", "id": 339857625, "lat": 51.5465886, "lon": -0.0983866}, {"type": "node", "id": 339857628, "lat": 51.5465324, "lon": -0.0983535}, {"type": "node", "id": 339857631, "lat": 51.5465128, "lon": -0.0984398}, {"type": "node", "id": 339857634, "lat": 51.546572, "lon": -0.0984747}, {"type": "node", "id": 339857636, "lat": 51.5465487, "lon": -0.0985768}, {"type": "node", "id": 339863104, "lat": 51.5463759, "lon": -0.1017894}, {"type": "node", "id": 339863105, "lat": 51.5464948, "lon": -0.101256}, {"type": "node", "id": 339863107, "lat": 51.5463027, "lon": -0.1017472}, {"type": "node", "id": 339863116, "lat": 51.5464216, "lon": -0.1012139}, {"type": "node", "id": 340003405, "lat": 51.5408147, "lon": -0.1020729}, {"type": "node", "id": 340003406, "lat": 51.5407162, "lon": -0.1020617}, {"type": "node", "id": 340003407, "lat": 51.5407233, "lon": -0.1018788}, {"type": "node", "id": 340003408, "lat": 51.5408146, "lon": -0.1019181}, {"type": "node", "id": 344875284, "lat": 51.55382, "lon": -0.0980505, "tags": {"amenity": "pub", "name": "Highbury Barn"}}, {"type": "node", "id": 344875712, "lat": 51.5534482, "lon": -0.1046613, "tags": {"addr:city": "London", "addr:country": "GB", "addr:housenumber": "66", "addr:postcode": "N5 1ND", "addr:street": "Drayton Park", "amenity": "pub", "fhrs:id": "416656", "level": "0", "name": "The Drayton Park Public House", "phone": "+44 20 7359 3915", "short_name": "Drayton Park"}}, {"type": "node", "id": 344953757, "lat": 51.5373364, "lon": -0.1066647}, {"type": "node", "id": 344953758, "lat": 51.5374192, "lon": -0.106666}, {"type": "node", "id": 344953759, "lat": 51.5374178, "lon": -0.1068118}, {"type": "node", "id": 345193013, "lat": 51.5404916, "lon": -0.1085343}, {"type": "node", "id": 345193015, "lat": 51.5405073, "lon": -0.1083611}, {"type": "node", "id": 345193037, "lat": 51.5405632, "lon": -0.1085491}, {"type": "node", "id": 345193043, "lat": 51.5404934, "lon": -0.1083579}, {"type": "node", "id": 345193050, "lat": 51.5405772, "lon": -0.108375}, {"type": "node", "id": 345406644, "lat": 51.5372154, "lon": -0.1066655}, {"type": "node", "id": 345406646, "lat": 51.5372031, "lon": -0.1068221}, {"type": "node", "id": 348156004, "lat": 51.5432025, "lon": -0.1035094}, {"type": "node", "id": 348156006, "lat": 51.5432935, "lon": -0.1033622}, {"type": "node", "id": 348156008, "lat": 51.543274, "lon": -0.1035325}, {"type": "node", "id": 348158876, "lat": 51.5446525, "lon": -0.1035515}, {"type": "node", "id": 348158890, "lat": 51.5447115, "lon": -0.1035345}, {"type": "node", "id": 348158891, "lat": 51.5447278, "lon": -0.1036715}, {"type": "node", "id": 348158917, "lat": 51.5447384, "lon": -0.1037658}, {"type": "node", "id": 348158918, "lat": 51.5446805, "lon": -0.103782}, {"type": "node", "id": 348713403, "lat": 51.5350795, "lon": -0.1045929}, {"type": "node", "id": 348713553, "lat": 51.5351174, "lon": -0.1046711}, {"type": "node", "id": 348713566, "lat": 51.5350064, "lon": -0.1046932}, {"type": "node", "id": 348713571, "lat": 51.5350368, "lon": -0.104753}, {"type": "node", "id": 349050365, "lat": 51.5337545, "lon": -0.1047889}, {"type": "node", "id": 349050371, "lat": 51.5337544, "lon": -0.1050718}, {"type": "node", "id": 349050372, "lat": 51.5336759, "lon": -0.1048665}, {"type": "node", "id": 349081257, "lat": 51.5417039, "lon": -0.1030969}, {"type": "node", "id": 349081260, "lat": 51.5416902, "lon": -0.1032373}, {"type": "node", "id": 349081310, "lat": 51.541743, "lon": -0.1035878}, {"type": "node", "id": 349081315, "lat": 51.5414921, "lon": -0.1035276}, {"type": "node", "id": 349081319, "lat": 51.5415019, "lon": -0.1034213}, {"type": "node", "id": 349081325, "lat": 51.5416119, "lon": -0.1034477}, {"type": "node", "id": 349081333, "lat": 51.5416292, "lon": -0.1032617}, {"type": "node", "id": 349081339, "lat": 51.5417699, "lon": -0.1032969}, {"type": "node", "id": 349081344, "lat": 51.5417044, "lon": -0.103092}, {"type": "node", "id": 349081346, "lat": 51.541788, "lon": -0.1031121}, {"type": "node", "id": 354719629, "lat": 51.5432933, "lon": -0.1033735}, {"type": "node", "id": 355161461, "lat": 51.5404795, "lon": -0.1085318}, {"type": "node", "id": 357304387, "lat": 51.5394449, "lon": -0.1095904}, {"type": "node", "id": 357304391, "lat": 51.5394274, "lon": -0.1094766}, {"type": "node", "id": 357304394, "lat": 51.5392411, "lon": -0.1096408}, {"type": "node", "id": 357304397, "lat": 51.5392278, "lon": -0.1092907}, {"type": "node", "id": 357304400, "lat": 51.5392895, "lon": -0.1092889}, {"type": "node", "id": 357304406, "lat": 51.5393013, "lon": -0.1094623}, {"type": "node", "id": 357304415, "lat": 51.5394175, "lon": -0.10935}, {"type": "node", "id": 357304419, "lat": 51.5393829, "lon": -0.1093639}, {"type": "node", "id": 357304423, "lat": 51.539391, "lon": -0.1094398}, {"type": "node", "id": 357304435, "lat": 51.539238, "lon": -0.1095311}, {"type": "node", "id": 360045160, "lat": 51.5460069, "lon": -0.1035265, "tags": {"addr:city": "London", "addr:housenumber": "259", "addr:street": "Upper Street", "amenity": "pub", "check_date": "2025-12-15", "fhrs:id": "417080", "indoor_seating": "yes", "name": "The Famous Cock", "opening_hours": "Mo-We 17:00-24:00, Th 17:00-01:00, Fr,Sa 17:00-03:00; Su off", "operator": "Stonegate", "operator:wikidata": "Q7619176", "outdoor_seating": "yes", "toilets": "yes", "toilets:access": "customers", "website": "https://www.crafted-social.co.uk/famous-cock-tavern-islington"}}, {"type": "node", "id": 362359474, "lat": 51.5499802, "lon": -0.1084358, "tags": {"addr:city": "London", "addr:housenumber": "98-100", "addr:postcode": "N7 8JE", "addr:street": "Holloway Road", "amenity": "pub", "fhrs:id": "416679", "name": "The Horatia", "old_name": "The Lord Nelson", "toilets": "yes", "toilets:access": "customers", "website": "https://www.thehoratia.co.uk/"}}, {"type": "node", "id": 375848733, "lat": 51.5345894, "lon": -0.0986938, "tags": {"addr:city": "London", "addr:housenumber": "30", "addr:postcode": "N1 8JT", "addr:street": "St. Peter's Street", "amenity": "pub", "cuisine": "regional", "email": "duke@dukeorganic.co.uk", "name": "Duke of Cambridge", "opening_hours": "Tu-Sa 12:00-23:00; Su 1200-1800", "organic": "only", "phone": "+44 20 7359 3066", "source": "survey", "toilets": "yes", "toilets:access": "customers", "website": "https://dukeorganic.co.uk/"}}, {"type": "node", "id": 375848872, "lat": 51.5337884, "lon": -0.0997194}, {"type": "node", "id": 426824806, "lat": 51.5589551, "lon": -0.099087}, {"type": "node", "id": 448376691, "lat": 51.5442039, "lon": -0.0656586}, {"type": "node", "id": 459250820, "lat": 51.5615953, "lon": -0.0998166, "tags": {"addr:city": "London", "addr:housenumber": "126", "addr:postcode": "N4 2DR", "addr:street": "Blackstock Road", "amenity": "pub", "name": "Kings Head", "opening_hours": "Su-th 11:00-24:00; fr-sa 11:00-01:00"}}, {"type": "node", "id": 459799097, "lat": 51.5507388, "lon": -0.0846814}, {"type": "node", "id": 461281890, "lat": 51.5426995, "lon": -0.0792445}, {"type": "node", "id": 462012138, "lat": 51.5390052, "lon": -0.0786025}, {"type": "node", "id": 472616746, "lat": 51.5428896, "lon": -0.0697416}, {"type": "node", "id": 501851083, "lat": 51.53747, "lon": -0.091168, "tags": {"addr:city": "London", "addr:housenumber": "189-190", "addr:street": "New North Road", "amenity": "pub", "description": "Gastropub", "name": "The North Pole", "opening_hours": "Tu-Fr 16:00+; Sa-Su 12:00+", "outdoor_seating": "yes", "website": "http://thenorthpolepub.co.uk/", "wheelchair": "no"}}, {"type": "node", "id": 560726499, "lat": 51.5338821, "lon": -0.0996405}, {"type": "node", "id": 560726500, "lat": 51.5339203, "lon": -0.0997578}, {"type": "node", "id": 618596228, "lat": 51.5395657, "lon": -0.09727, "tags": {"addr:city": "London", "addr:housenumber": "144a", "addr:postcode": "N1 8LX", "addr:street": "Essex Road", "amenity": "pub", "check_date": "2024-09-12", "indoor_seating": "yes", "name": "The Green Man", "outdoor_seating": "yes", "source": "Local knowledge"}}, {"type": "node", "id": 658958423, "lat": 51.55592, "lon": -0.0746704, "tags": {"addr:city": "London", "addr:housenumber": "121", "addr:postcode": "N16 8BT", "addr:street": "Stoke Newington Road", "amenity": "pub", "fhrs:id": "470297", "name": "Yucatan Bar", "toilets": "yes", "toilets:access": "customers"}}, {"type": "node", "id": 660897081, "lat": 51.5591724, "lon": -0.0743777}, {"type": "node", "id": 672922150, "lat": 51.5463469, "lon": -0.1019276}, {"type": "node", "id": 814275635, "lat": 51.5332581, "lon": -0.098296}, {"type": "node", "id": 814275648, "lat": 51.5331368, "lon": -0.0984712}, {"type": "node", "id": 814275692, "lat": 51.533135, "lon": -0.0982993}, {"type": "node", "id": 815398933, "lat": 51.5362508, "lon": -0.0988191, "tags": {"addr:city": "London", "addr:housenumber": "39", "addr:postcode": "N1 8NQ", "addr:street": "Queen's Head Street", "amenity": "pub", "comedy": "yes", "name": "The Bill Murray", "website": "https://www.angelcomedy.co.uk/"}}, {"type": "node", "id": 822169316, "lat": 51.5371542, "lon": -0.1001096}, {"type": "node", "id": 822169329, "lat": 51.537127, "lon": -0.1003293}, {"type": "node", "id": 822169334, "lat": 51.5371744, "lon": -0.1002697}, {"type": "node", "id": 822169335, "lat": 51.5372104, "lon": -0.1002248}, {"type": "node", "id": 822169352, "lat": 51.5371184, "lon": -0.1001547}, {"type": "node", "id": 822169363, "lat": 51.537222, "lon": -0.1002492}, {"type": "node", "id": 822169371, "lat": 51.5371944, "lon": -0.1004488}, {"type": "node", "id": 822169379, "lat": 51.5372717, "lon": -0.1003517}, {"type": "node", "id": 823322560, "lat": 51.5382935, "lon": -0.0988744}, {"type": "node", "id": 823322591, "lat": 51.5383363, "lon": -0.0988847}, {"type": "node", "id": 823322612, "lat": 51.5384409, "lon": -0.0988207}, {"type": "node", "id": 823322621, "lat": 51.5384966, "lon": -0.0989518}, {"type": "node", "id": 823849100, "lat": 51.5418513, "lon": -0.0976493}, {"type": "node", "id": 823849155, "lat": 51.5417412, "lon": -0.0976278}, {"type": "node", "id": 848889077, "lat": 51.5374632, "lon": -0.0935448}, {"type": "node", "id": 848889157, "lat": 51.5375894, "lon": -0.0934466}, {"type": "node", "id": 848889171, "lat": 51.537568, "lon": -0.0934276}, {"type": "node", "id": 848889237, "lat": 51.5375916, "lon": -0.0936794}, {"type": "node", "id": 848889295, "lat": 51.5376557, "lon": -0.093518}, {"type": "node", "id": 1235326328, "lat": 51.5463365, "lon": -0.0806012}, {"type": "node", "id": 1235326329, "lat": 51.5463258, "lon": -0.0805148}, {"type": "node", "id": 1235326330, "lat": 51.5462384, "lon": -0.0805486}, {"type": "node", "id": 1235681043, "lat": 51.5461578, "lon": -0.0806481}, {"type": "node", "id": 1342109041, "lat": 51.5334069, "lon": -0.1094266}, {"type": "node", "id": 1345654356, "lat": 51.5333971, "lon": -0.1095642}, {"type": "node", "id": 1345654370, "lat": 51.5333121, "lon": -0.1095481}, {"type": "node", "id": 1642117998, "lat": 51.5417236, "lon": -0.0976503}, {"type": "node", "id": 1642118071, "lat": 51.5417723, "lon": -0.0977553}, {"type": "node", "id": 1657760797, "lat": 51.5507665, "lon": -0.1103309}, {"type": "node", "id": 1657760807, "lat": 51.5508053, "lon": -0.1102393}, {"type": "node", "id": 1657760811, "lat": 51.5508159, "lon": -0.1102266}, {"type": "node", "id": 1657760814, "lat": 51.5508288, "lon": -0.1103909}, {"type": "node", "id": 1657760815, "lat": 51.5508303, "lon": -0.1102191}, {"type": "node", "id": 1657760816, "lat": 51.5508309, "lon": -0.110347}, {"type": "node", "id": 1657760822, "lat": 51.5508402, "lon": -0.1103555}, {"type": "node", "id": 1657760824, "lat": 51.5508566, "lon": -0.1102118}, {"type": "node", "id": 1678321931, "lat": 51.5516766, "lon": -0.1106216, "tags": {"amenity": "pub", "name": "The Rocket (Student Bar)"}}, {"type": "node", "id": 1750188838, "lat": 51.5333145, "lon": -0.1094772}, {"type": "node", "id": 1750188840, "lat": 51.5333168, "lon": -0.1094121}, {"type": "node", "id": 1993922359, "lat": 51.5459829, "lon": -0.083454}, {"type": "node", "id": 1993922362, "lat": 51.5459863, "lon": -0.0832588}, {"type": "node", "id": 1993922368, "lat": 51.5458658, "lon": -0.0832762}, {"type": "node", "id": 1993922380, "lat": 51.5459754, "lon": -0.083572}, {"type": "node", "id": 1993922389, "lat": 51.5458907, "lon": -0.0835625}, {"type": "node", "id": 1993932989, "lat": 51.5459847, "lon": -0.0832554}, {"type": "node", "id": 2078974393, "lat": 51.5448981, "lon": -0.0882138}, {"type": "node", "id": 2078974427, "lat": 51.5449577, "lon": -0.0883869}, {"type": "node", "id": 2078974482, "lat": 51.5449218, "lon": -0.0882816}, {"type": "node", "id": 2078974507, "lat": 51.5449785, "lon": -0.0881475}, {"type": "node", "id": 2078974510, "lat": 51.5450093, "lon": -0.0883132}, {"type": "node", "id": 2078995452, "lat": 51.5437254, "lon": -0.0898889}, {"type": "node", "id": 2078995455, "lat": 51.5438205, "lon": -0.0899305}, {"type": "node", "id": 2078995456, "lat": 51.5438221, "lon": -0.0897709}, {"type": "node", "id": 2078995458, "lat": 51.5438347, "lon": -0.0898849}, {"type": "node", "id": 2078995459, "lat": 51.5437396, "lon": -0.0900524}, {"type": "node", "id": 2078995473, "lat": 51.5437688, "lon": -0.0898165}, {"type": "node", "id": 2078995474, "lat": 51.5437658, "lon": -0.0898034}, {"type": "node", "id": 2078995478, "lat": 51.5436295, "lon": -0.0898661}, {"type": "node", "id": 2078995481, "lat": 51.5436695, "lon": -0.0898084}, {"type": "node", "id": 2078995484, "lat": 51.5438363, "lon": -0.089846}, {"type": "node", "id": 2083800558, "lat": 51.5375852, "lon": -0.0870133}, {"type": "node", "id": 2083800565, "lat": 51.5376057, "lon": -0.086847}, {"type": "node", "id": 2083800566, "lat": 51.537554, "lon": -0.0868416}, {"type": "node", "id": 2083800569, "lat": 51.5377072, "lon": -0.0869406}, {"type": "node", "id": 2083800570, "lat": 51.5375316, "lon": -0.0870328}, {"type": "node", "id": 2083800571, "lat": 51.5375022, "lon": -0.0868792}, {"type": "node", "id": 2083800572, "lat": 51.5376271, "lon": -0.086994}, {"type": "node", "id": 2083800573, "lat": 51.5377083, "lon": -0.0868537}, {"type": "node", "id": 2208150035, "lat": 51.5337144, "lon": -0.1069716, "tags": {"addr:city": "London", "addr:housenumber": "13", "addr:postcode": "N1 0RW", "addr:street": "Liverpool Road", "amenity": "pub", "indoor_seating": "yes", "name": "The Islington", "outdoor_seating": "yes"}}, {"type": "node", "id": 2258998543, "lat": 51.549108, "lon": -0.0912586}, {"type": "node", "id": 2258998548, "lat": 51.5491475, "lon": -0.0913961}, {"type": "node", "id": 2258998571, "lat": 51.5491952, "lon": -0.0913308}, {"type": "node", "id": 2259001245, "lat": 51.5505653, "lon": -0.0866357}, {"type": "node", "id": 2259001251, "lat": 51.5505548, "lon": -0.0864636}, {"type": "node", "id": 2364681549, "lat": 51.548442, "lon": -0.0877134}, {"type": "node", "id": 2364681552, "lat": 51.5483415, "lon": -0.0877651}, {"type": "node", "id": 2364681561, "lat": 51.5484677, "lon": -0.0878429}, {"type": "node", "id": 2364681563, "lat": 51.5483672, "lon": -0.0878945}, {"type": "node", "id": 2364702709, "lat": 51.5490614, "lon": -0.0912834}, {"type": "node", "id": 2364702712, "lat": 51.5492073, "lon": -0.0912345}, {"type": "node", "id": 2364702714, "lat": 51.549113, "lon": -0.0912075}, {"type": "node", "id": 2364702716, "lat": 51.5491843, "lon": -0.0913597}, {"type": "node", "id": 2364702718, "lat": 51.5492011, "lon": -0.0912982}, {"type": "node", "id": 2364702720, "lat": 51.5490894, "lon": -0.0914259}, {"type": "node", "id": 2364702722, "lat": 51.5491683, "lon": -0.0913819}, {"type": "node", "id": 2387757361, "lat": 51.5446101, "lon": -0.097657}, {"type": "node", "id": 2387757387, "lat": 51.5447975, "lon": -0.0973399}, {"type": "node", "id": 2387757393, "lat": 51.544686, "lon": -0.0972816}, {"type": "node", "id": 2387757435, "lat": 51.5447228, "lon": -0.097716}, {"type": "node", "id": 2387761780, "lat": 51.5447333, "lon": -0.0976643}, {"type": "node", "id": 2387761781, "lat": 51.5447615, "lon": -0.0975181}, {"type": "node", "id": 2387761785, "lat": 51.5447752, "lon": -0.0976862}, {"type": "node", "id": 2387761787, "lat": 51.5448046, "lon": -0.0975406}, {"type": "node", "id": 2387840241, "lat": 51.5579126, "lon": -0.0908638}, {"type": "node", "id": 2387840254, "lat": 51.5577409, "lon": -0.0908081}, {"type": "node", "id": 2387840258, "lat": 51.5577538, "lon": -0.090705}, {"type": "node", "id": 2387840270, "lat": 51.5579255, "lon": -0.0907606}, {"type": "node", "id": 2388857496, "lat": 51.5431271, "lon": -0.0953025}, {"type": "node", "id": 2388857499, "lat": 51.5431277, "lon": -0.0953992}, {"type": "node", "id": 2388857501, "lat": 51.5431417, "lon": -0.0952518}, {"type": "node", "id": 2388857503, "lat": 51.5431736, "lon": -0.0952774}, {"type": "node", "id": 2388857505, "lat": 51.5431864, "lon": -0.0952449}, {"type": "node", "id": 2388857507, "lat": 51.5432009, "lon": -0.0951536}, {"type": "node", "id": 2388857510, "lat": 51.543207, "lon": -0.0954545}, {"type": "node", "id": 2388857512, "lat": 51.5432091, "lon": -0.0952654}, {"type": "node", "id": 2388857514, "lat": 51.5432496, "lon": -0.095387}, {"type": "node", "id": 2388857516, "lat": 51.5432606, "lon": -0.0953371}, {"type": "node", "id": 2417907537, "lat": 51.5432192, "lon": -0.0952436}, {"type": "node", "id": 2417907545, "lat": 51.5432909, "lon": -0.0952808}, {"type": "node", "id": 2417907568, "lat": 51.5431799, "lon": -0.0951966}, {"type": "node", "id": 2453804168, "lat": 51.5460579, "lon": -0.0752633}, {"type": "node", "id": 2453804174, "lat": 51.5461407, "lon": -0.0755082}, {"type": "node", "id": 2453804176, "lat": 51.546172, "lon": -0.0752558}, {"type": "node", "id": 2453804178, "lat": 51.5461507, "lon": -0.0754748}, {"type": "node", "id": 2453804181, "lat": 51.5461307, "lon": -0.0755176}, {"type": "node", "id": 2453804184, "lat": 51.546066, "lon": -0.075378}, {"type": "node", "id": 2458507843, "lat": 51.5441357, "lon": -0.0654899}, {"type": "node", "id": 2458507864, "lat": 51.5449715, "lon": -0.0681942}, {"type": "node", "id": 2458507868, "lat": 51.5442048, "lon": -0.0654933}, {"type": "node", "id": 2458507904, "lat": 51.5449788, "lon": -0.0680674}, {"type": "node", "id": 2458529656, "lat": 51.5428894, "lon": -0.0697258}, {"type": "node", "id": 2458556979, "lat": 51.5432989, "lon": -0.0814922}, {"type": "node", "id": 2458556980, "lat": 51.5432946, "lon": -0.0815317}, {"type": "node", "id": 2458556981, "lat": 51.5432531, "lon": -0.0815167}, {"type": "node", "id": 2458556982, "lat": 51.5432382, "lon": -0.0816601}, {"type": "node", "id": 2458556983, "lat": 51.5432632, "lon": -0.0816691}, {"type": "node", "id": 2458556984, "lat": 51.5432578, "lon": -0.0817094}, {"type": "node", "id": 2458556985, "lat": 51.5433793, "lon": -0.0818054}, {"type": "node", "id": 2458556986, "lat": 51.5434248, "lon": -0.0814707}, {"type": "node", "id": 2458596795, "lat": 51.5447931, "lon": -0.0973615}, {"type": "node", "id": 2462272855, "lat": 51.5611049, "lon": -0.083691}, {"type": "node", "id": 2462272871, "lat": 51.5609382, "lon": -0.0836481}, {"type": "node", "id": 2462272873, "lat": 51.5610499, "lon": -0.0836534}, {"type": "node", "id": 2462272879, "lat": 51.5610744, "lon": -0.0836613}, {"type": "node", "id": 2462272883, "lat": 51.5611161, "lon": -0.0837391}, {"type": "node", "id": 2462272885, "lat": 51.5610269, "lon": -0.0838356}, {"type": "node", "id": 2462272895, "lat": 51.5610266, "lon": -0.083813}, {"type": "node", "id": 2462272897, "lat": 51.5611033, "lon": -0.0838533}, {"type": "node", "id": 2462272904, "lat": 51.5609168, "lon": -0.0837927}, {"type": "node", "id": 2462272905, "lat": 51.5611136, "lon": -0.0837216}, {"type": "node", "id": 2462272910, "lat": 51.5611161, "lon": -0.0837659}, {"type": "node", "id": 2462272912, "lat": 51.5610933, "lon": -0.0836722}, {"type": "node", "id": 2490266006, "lat": 51.5437003, "lon": -0.0899858}, {"type": "node", "id": 2500693744, "lat": 51.558343, "lon": -0.0988763}, {"type": "node", "id": 2500693746, "lat": 51.5583438, "lon": -0.0988647}, {"type": "node", "id": 2500693747, "lat": 51.5583715, "lon": -0.0988699}, {"type": "node", "id": 2500693750, "lat": 51.5582995, "lon": -0.0986545}, {"type": "node", "id": 2500693751, "lat": 51.5582841, "lon": -0.0988652}, {"type": "node", "id": 2514068133, "lat": 51.5462047, "lon": -0.1019754}, {"type": "node", "id": 2514068134, "lat": 51.5462078, "lon": -0.1019212}, {"type": "node", "id": 2514068135, "lat": 51.5462939, "lon": -0.101781}, {"type": "node", "id": 2514068137, "lat": 51.5462439, "lon": -0.1019124}, {"type": "node", "id": 2514068138, "lat": 51.5463356, "lon": -0.1019392}, {"type": "node", "id": 2514068139, "lat": 51.5462305, "lon": -0.1019996}, {"type": "node", "id": 2514068140, "lat": 51.5462789, "lon": -0.1018427}, {"type": "node", "id": 2514068141, "lat": 51.546248, "lon": -0.1018373}, {"type": "node", "id": 2531024418, "lat": 51.545728, "lon": -0.1034102, "tags": {"addr:city": "London", "addr:housenumber": "255-256", "addr:postcode": "N1 1RY", "addr:street": "Upper Street", "addr:suburb": "Islington", "amenity": "pub", "brand": "Wetherspoon", "brand:wikidata": "Q6109362", "fhrs:id": "416917", "indoor_seating": "yes", "internet_access": "wlan", "name": "The White Swan", "outdoor_seating": "yes", "source:addr": "FHRS Open Data", "website": "https://www.jdwetherspoon.com/pubs/all-pubs/england/london/the-white-swan-islington", "website:menu": "https://order.jdwetherspoon.com/venue/jdw/1732/menus", "wikidata": "Q88916688"}}, {"type": "node", "id": 2568180222, "lat": 51.5408031, "lon": -0.1018931}, {"type": "node", "id": 2577073052, "lat": 51.5486728, "lon": -0.0792635}, {"type": "node", "id": 2577073053, "lat": 51.5487954, "lon": -0.0794655}, {"type": "node", "id": 2577073054, "lat": 51.5488046, "lon": -0.0794406}, {"type": "node", "id": 2577073055, "lat": 51.5488063, "lon": -0.0793991}, {"type": "node", "id": 2577073056, "lat": 51.5488071, "lon": -0.0794225}, {"type": "node", "id": 2679185626, "lat": 51.5406308, "lon": -0.0760957}, {"type": "node", "id": 2679185627, "lat": 51.5405992, "lon": -0.0761113}, {"type": "node", "id": 2679185629, "lat": 51.5406135, "lon": -0.0761772}, {"type": "node", "id": 2679185630, "lat": 51.5406213, "lon": -0.0760462}, {"type": "node", "id": 2679185631, "lat": 51.5406487, "lon": -0.0760327}, {"type": "node", "id": 2679185632, "lat": 51.5407221, "lon": -0.0761535}, {"type": "node", "id": 2679357870, "lat": 51.5407382, "lon": -0.0762754}, {"type": "node", "id": 2682534030, "lat": 51.5555426, "lon": -0.0817418}, {"type": "node", "id": 2682534037, "lat": 51.5554452, "lon": -0.0817512}, {"type": "node", "id": 2682534046, "lat": 51.5554603, "lon": -0.0818845}, {"type": "node", "id": 2682534049, "lat": 51.5555475, "lon": -0.0818642}, {"type": "node", "id": 2682534050, "lat": 51.5555534, "lon": -0.0818626}, {"type": "node", "id": 2709382372, "lat": 51.5538732, "lon": -0.0886284}, {"type": "node", "id": 2709382373, "lat": 51.5538412, "lon": -0.088724}, {"type": "node", "id": 2709382374, "lat": 51.5538217, "lon": -0.0887071}, {"type": "node", "id": 2709382375, "lat": 51.5538148, "lon": -0.0887278}, {"type": "node", "id": 2709382376, "lat": 51.5537316, "lon": -0.0886597}, {"type": "node", "id": 2709382377, "lat": 51.5537705, "lon": -0.0885382}, {"type": "node", "id": 2780276619, "lat": 51.541703, "lon": -0.085046}, {"type": "node", "id": 2919134724, "lat": 51.5407403, "lon": -0.1030113}, {"type": "node", "id": 2919134725, "lat": 51.5407544, "lon": -0.1028588}, {"type": "node", "id": 2919134728, "lat": 51.5407946, "lon": -0.1030243}, {"type": "node", "id": 2919134730, "lat": 51.5408087, "lon": -0.1028718}, {"type": "node", "id": 2929249740, "lat": 51.5476979, "lon": -0.0756244}, {"type": "node", "id": 2929249741, "lat": 51.5477093, "lon": -0.0757761}, {"type": "node", "id": 3036970648, "lat": 51.5416864, "lon": -0.103276}, {"type": "node", "id": 3036970649, "lat": 51.5417456, "lon": -0.1031019, "tags": {"entrance": "main"}}, {"type": "node", "id": 3338381455, "lat": 51.5462166, "lon": -0.1019866, "tags": {"entrance": "main"}}, {"type": "node", "id": 3370832364, "lat": 51.5483557, "lon": -0.0877578, "tags": {"entrance": "yes", "source": "Survey of 2013-09-24"}}, {"type": "node", "id": 3370832365, "lat": 51.5483639, "lon": -0.0878781}, {"type": "node", "id": 3370832367, "lat": 51.5483923, "lon": -0.0877389, "tags": {"entrance": "yes", "source": "Survey of 2013-09-24"}}, {"type": "node", "id": 3370832369, "lat": 51.5484287, "lon": -0.0877203, "tags": {"entrance": "main", "source": "Survey of 2013-09-24"}}, {"type": "node", "id": 3761500479, "lat": 51.5460805, "lon": -0.0755343}, {"type": "node", "id": 3761504666, "lat": 51.5506791, "lon": -0.0865494}, {"type": "node", "id": 3761504671, "lat": 51.5506358, "lon": -0.0864023}, {"type": "node", "id": 3774392248, "lat": 51.5428208, "lon": -0.079217}, {"type": "node", "id": 3822049937, "lat": 51.5475153, "lon": -0.0756598}, {"type": "node", "id": 3822049938, "lat": 51.5475199, "lon": -0.075733}, {"type": "node", "id": 3822049940, "lat": 51.5476577, "lon": -0.0756349}, {"type": "node", "id": 3822049941, "lat": 51.547669, "lon": -0.075824}, {"type": "node", "id": 3822049942, "lat": 51.5477127, "lon": -0.07582}, {"type": "node", "id": 3822049943, "lat": 51.5475763, "lon": -0.0757496}, {"type": "node", "id": 3822049944, "lat": 51.5476631, "lon": -0.0757392}, {"type": "node", "id": 3849165558, "lat": 51.5517614, "lon": -0.0799039}, {"type": "node", "id": 3849165559, "lat": 51.5517388, "lon": -0.0797204}, {"type": "node", "id": 3849165560, "lat": 51.5517036, "lon": -0.0797024}, {"type": "node", "id": 3849165561, "lat": 51.5516073, "lon": -0.0798514}, {"type": "node", "id": 3849165562, "lat": 51.5516427, "lon": -0.079926}, {"type": "node", "id": 3849165563, "lat": 51.5516624, "lon": -0.0799338}, {"type": "node", "id": 3978851545, "lat": 51.5545853, "lon": -0.0680323}, {"type": "node", "id": 3978851546, "lat": 51.5545945, "lon": -0.0681716}, {"type": "node", "id": 3978851548, "lat": 51.554634, "lon": -0.068024}, {"type": "node", "id": 3978851555, "lat": 51.5546917, "lon": -0.0680142}, {"type": "node", "id": 3978851556, "lat": 51.5547008, "lon": -0.0681536}, {"type": "node", "id": 3978853848, "lat": 51.5545935, "lon": -0.0681573}, {"type": "node", "id": 4002224564, "lat": 51.5495145, "lon": -0.0869091}, {"type": "node", "id": 4002224565, "lat": 51.5494974, "lon": -0.0868155}, {"type": "node", "id": 4002224566, "lat": 51.5495078, "lon": -0.0868107}, {"type": "node", "id": 4002224567, "lat": 51.5494907, "lon": -0.0866966}, {"type": "node", "id": 4002224568, "lat": 51.5493742, "lon": -0.086741}, {"type": "node", "id": 4002224569, "lat": 51.5494093, "lon": -0.0869523}, {"type": "node", "id": 4002224577, "lat": 51.549394, "lon": -0.0868602}, {"type": "node", "id": 4130454656, "lat": 51.5423428, "lon": -0.0759586}, {"type": "node", "id": 4130454657, "lat": 51.5422703, "lon": -0.0759621}, {"type": "node", "id": 4130454658, "lat": 51.5422674, "lon": -0.0757018}, {"type": "node", "id": 4130454659, "lat": 51.5423448, "lon": -0.0756997}, {"type": "node", "id": 4250008044, "lat": 51.5620169, "lon": -0.105091, "tags": {"amenity": "pub", "name": "The Auld Triangle"}}, {"type": "node", "id": 4529311585, "lat": 51.5356381, "lon": -0.1029879}, {"type": "node", "id": 4529311586, "lat": 51.5356185, "lon": -0.1029879}, {"type": "node", "id": 4529311587, "lat": 51.5355601, "lon": -0.1028552}, {"type": "node", "id": 4529311588, "lat": 51.5356469, "lon": -0.1027439}, {"type": "node", "id": 4529311789, "lat": 51.5357107, "lon": -0.1028847}, {"type": "node", "id": 4538753907, "lat": 51.5375297, "lon": -0.0933859}, {"type": "node", "id": 4538753909, "lat": 51.5375137, "lon": -0.0934238}, {"type": "node", "id": 4538753912, "lat": 51.5374718, "lon": -0.0935234}, {"type": "node", "id": 4554673482, "lat": 51.5519263, "lon": -0.0748289}, {"type": "node", "id": 4554673483, "lat": 51.5519176, "lon": -0.0745375}, {"type": "node", "id": 4554673484, "lat": 51.551994, "lon": -0.0745267}, {"type": "node", "id": 4554673485, "lat": 51.552007, "lon": -0.0748012}, {"type": "node", "id": 4554673486, "lat": 51.5519913, "lon": -0.0748235}, {"type": "node", "id": 4599572794, "lat": 51.558386, "lon": -0.0986708}, {"type": "node", "id": 4614045795, "lat": 51.5523286, "lon": -0.0714099}, {"type": "node", "id": 4614045796, "lat": 51.5523685, "lon": -0.0712954}, {"type": "node", "id": 4614045797, "lat": 51.5523927, "lon": -0.071276}, {"type": "node", "id": 4614045798, "lat": 51.5524743, "lon": -0.0713497}, {"type": "node", "id": 4614045800, "lat": 51.5523511, "lon": -0.0714481}, {"type": "node", "id": 4614045805, "lat": 51.5524235, "lon": -0.0715037}, {"type": "node", "id": 4639477137, "lat": 51.5367429, "lon": -0.0755411}, {"type": "node", "id": 4639477138, "lat": 51.5367547, "lon": -0.0758381}, {"type": "node", "id": 4639477140, "lat": 51.5366515, "lon": -0.0755505}, {"type": "node", "id": 4639477141, "lat": 51.5366633, "lon": -0.0758475}, {"type": "node", "id": 4639487527, "lat": 51.536379, "lon": -0.0806062}, {"type": "node", "id": 4639487528, "lat": 51.5362507, "lon": -0.0806097}, {"type": "node", "id": 4639487529, "lat": 51.5362766, "lon": -0.0808107}, {"type": "node", "id": 4639487546, "lat": 51.5362357, "lon": -0.0771903}, {"type": "node", "id": 4639487547, "lat": 51.5361611, "lon": -0.0771835}, {"type": "node", "id": 4639487548, "lat": 51.53624, "lon": -0.0770651}, {"type": "node", "id": 4639487552, "lat": 51.5361631, "lon": -0.0770434}, {"type": "node", "id": 4639875842, "lat": 51.5506345, "lon": -0.0846381}, {"type": "node", "id": 4639875843, "lat": 51.5507528, "lon": -0.0845545}, {"type": "node", "id": 4639875844, "lat": 51.5506918, "lon": -0.0842984}, {"type": "node", "id": 4639875845, "lat": 51.5506676, "lon": -0.0843033}, {"type": "node", "id": 4639875846, "lat": 51.5506323, "lon": -0.0846595}, {"type": "node", "id": 4641770298, "lat": 51.5519209, "lon": -0.07466}, {"type": "node", "id": 4683832683, "lat": 51.5389904, "lon": -0.0784336}, {"type": "node", "id": 4683832684, "lat": 51.5389, "lon": -0.0784456}, {"type": "node", "id": 4683832685, "lat": 51.5389035, "lon": -0.0784966}, {"type": "node", "id": 4683832686, "lat": 51.5389067, "lon": -0.0785311}, {"type": "node", "id": 4683832687, "lat": 51.5389174, "lon": -0.0786311}, {"type": "node", "id": 5159954235, "lat": 51.5456609, "lon": -0.0699234}, {"type": "node", "id": 5159954236, "lat": 51.5456654, "lon": -0.0702806}, {"type": "node", "id": 5159954237, "lat": 51.545823, "lon": -0.0702756}, {"type": "node", "id": 5159954238, "lat": 51.5458083, "lon": -0.0701813}, {"type": "node", "id": 5159954239, "lat": 51.5457658, "lon": -0.070183}, {"type": "node", "id": 5159954240, "lat": 51.5457638, "lon": -0.0700557}, {"type": "node", "id": 5159954241, "lat": 51.54579, "lon": -0.0700547}, {"type": "node", "id": 5174806040, "lat": 51.5466556, "lon": -0.0984095, "tags": {"entrance": "yes"}}, {"type": "node", "id": 5193720990, "lat": 51.5415891, "lon": -0.0852463}, {"type": "node", "id": 5193720991, "lat": 51.5415853, "lon": -0.0850853}, {"type": "node", "id": 5193720992, "lat": 51.5417314, "lon": -0.0851881}, {"type": "node", "id": 5193721015, "lat": 51.5407406, "lon": -0.0762404}, {"type": "node", "id": 5193721016, "lat": 51.5406423, "lon": -0.0763143}, {"type": "node", "id": 5194508624, "lat": 51.5415738, "lon": -0.0851227}, {"type": "node", "id": 5195933581, "lat": 51.5461507, "lon": -0.0805628}, {"type": "node", "id": 5196299002, "lat": 51.5591783, "lon": -0.0744592}, {"type": "node", "id": 5196300129, "lat": 51.5599631, "lon": -0.0782556}, {"type": "node", "id": 5196300132, "lat": 51.5600755, "lon": -0.0782589}, {"type": "node", "id": 5196300133, "lat": 51.5599629, "lon": -0.0782361}, {"type": "node", "id": 5196300134, "lat": 51.5599629, "lon": -0.0784252}, {"type": "node", "id": 5226708349, "lat": 51.5433957, "lon": -0.0817155}, {"type": "node", "id": 5226708350, "lat": 51.5434163, "lon": -0.081541}, {"type": "node", "id": 6031881517, "lat": 51.5621886, "lon": -0.0741043}, {"type": "node", "id": 6186632435, "lat": 51.5621371, "lon": -0.080477}, {"type": "node", "id": 6186632436, "lat": 51.5621834, "lon": -0.0805266}, {"type": "node", "id": 6186632437, "lat": 51.5621501, "lon": -0.0806098}, {"type": "node", "id": 6186632438, "lat": 51.5621972, "lon": -0.0806708}, {"type": "node", "id": 6186632439, "lat": 51.5621651, "lon": -0.0807359}, {"type": "node", "id": 6986773788, "lat": 51.5418, "lon": -0.0975529}, {"type": "node", "id": 7278465727, "lat": 51.5590381, "lon": -0.0989257}, {"type": "node", "id": 7278465729, "lat": 51.5590418, "lon": -0.0987402}, {"type": "node", "id": 7278465733, "lat": 51.5589259, "lon": -0.0987415}, {"type": "node", "id": 7278465734, "lat": 51.5588799, "lon": -0.099068}, {"type": "node", "id": 7622583694, "lat": 51.5622091, "lon": -0.0741485}, {"type": "node", "id": 7622583695, "lat": 51.5620575, "lon": -0.0741774}, {"type": "node", "id": 7622583697, "lat": 51.5621179, "lon": -0.0737324}, {"type": "node", "id": 7622583698, "lat": 51.5620998, "lon": -0.0737338}, {"type": "node", "id": 7622583699, "lat": 51.562044, "lon": -0.0737434}, {"type": "node", "id": 7622583700, "lat": 51.5620319, "lon": -0.0737715}, {"type": "node", "id": 7622583701, "lat": 51.5621746, "lon": -0.0738771}, {"type": "node", "id": 7622583702, "lat": 51.5622076, "lon": -0.0741072}, {"type": "node", "id": 8043930227, "lat": 51.5482254, "lon": -0.0686833}, {"type": "node", "id": 8043930228, "lat": 51.5482429, "lon": -0.0685559}, {"type": "node", "id": 8043930229, "lat": 51.5483964, "lon": -0.0686096}, {"type": "node", "id": 8043930230, "lat": 51.548383, "lon": -0.0687316}, {"type": "node", "id": 8586640463, "lat": 51.5590799, "lon": -0.0743952}, {"type": "node", "id": 8586640464, "lat": 51.5590852, "lon": -0.0744682}, {"type": "node", "id": 8586640465, "lat": 51.5590721, "lon": -0.0744707}, {"type": "node", "id": 8586640466, "lat": 51.5591856, "lon": -0.074558}, {"type": "node", "id": 8586640467, "lat": 51.5590773, "lon": -0.0745412}, {"type": "node", "id": 8586640473, "lat": 51.5591732, "lon": -0.0745604}, {"type": "node", "id": 8586640474, "lat": 51.55908, "lon": -0.074578}, {"type": "node", "id": 8589123814, "lat": 51.5392415, "lon": -0.1096613}, {"type": "node", "id": 8589123815, "lat": 51.5394224, "lon": -0.1094407}, {"type": "node", "id": 8665040478, "lat": 51.5610301, "lon": -0.0984433}, {"type": "node", "id": 8665040479, "lat": 51.560966, "lon": -0.0985673}, {"type": "node", "id": 8665049650, "lat": 51.5609932, "lon": -0.0983286}, {"type": "node", "id": 8665049651, "lat": 51.5610367, "lon": -0.0982446}, {"type": "node", "id": 8665049652, "lat": 51.5609445, "lon": -0.098136}, {"type": "node", "id": 8665049653, "lat": 51.5610501, "lon": -0.0984048}, {"type": "node", "id": 8665049654, "lat": 51.5608919, "lon": -0.0984681}, {"type": "node", "id": 8701197876, "lat": 51.538369, "lon": -0.099076}, {"type": "node", "id": 8701197877, "lat": 51.5383276, "lon": -0.0988546}, {"type": "node", "id": 8701197879, "lat": 51.5384639, "lon": -0.098874}, {"type": "node", "id": 8811796050, "lat": 51.5595592, "lon": -0.0984899}, {"type": "node", "id": 8811796051, "lat": 51.5595559, "lon": -0.0983289}, {"type": "node", "id": 8811796061, "lat": 51.5594904, "lon": -0.0981507}, {"type": "node", "id": 8811796062, "lat": 51.5594979, "lon": -0.0985181}, {"type": "node", "id": 8811796065, "lat": 51.5595522, "lon": -0.0981474}, {"type": "node", "id": 8811796066, "lat": 51.5595597, "lon": -0.0985149}, {"type": "node", "id": 8823730492, "lat": 51.5429941, "lon": -0.0697383}, {"type": "node", "id": 8823730493, "lat": 51.5429926, "lon": -0.0696179}, {"type": "node", "id": 8823730494, "lat": 51.5428882, "lon": -0.0696212}, {"type": "node", "id": 8853725945, "lat": 51.5441105, "lon": -0.0656399}, {"type": "node", "id": 8853725946, "lat": 51.5441146, "lon": -0.0654888}, {"type": "node", "id": 8856498599, "lat": 51.5575845, "lon": -0.080672}, {"type": "node", "id": 8856498600, "lat": 51.5576873, "lon": -0.0806531}, {"type": "node", "id": 8856498601, "lat": 51.5576811, "lon": -0.0805654}, {"type": "node", "id": 8856498602, "lat": 51.5576641, "lon": -0.0805458}, {"type": "node", "id": 8871554145, "lat": 51.536221, "lon": -0.0770423}, {"type": "node", "id": 8881466450, "lat": 51.5362556, "lon": -0.0806748}, {"type": "node", "id": 8985341482, "lat": 51.5450768, "lon": -0.0680017}, {"type": "node", "id": 8985341483, "lat": 51.5450436, "lon": -0.0679961}, {"type": "node", "id": 8985341484, "lat": 51.5450408, "lon": -0.0680386}, {"type": "node", "id": 8985341485, "lat": 51.5449821, "lon": -0.0680287}, {"type": "node", "id": 8985425860, "lat": 51.551919, "lon": -0.0745697}, {"type": "node", "id": 9103717546, "lat": 51.5389096, "lon": -0.0784446}, {"type": "node", "id": 9193849378, "lat": 51.5407065, "lon": -0.0761278, "tags": {"addr:city": "London", "addr:housenumber": "305", "addr:street": "Haggerston Road", "entrance": "yes"}}, {"type": "node", "id": 9246722118, "lat": 51.5354589, "lon": -0.07724}, {"type": "node", "id": 9246722119, "lat": 51.5354558, "lon": -0.0770543}, {"type": "node", "id": 9246722120, "lat": 51.5353694, "lon": -0.0770627}, {"type": "node", "id": 9246722121, "lat": 51.5354578, "lon": -0.0771762}, {"type": "node", "id": 9246722134, "lat": 51.5353673, "lon": -0.077078}, {"type": "node", "id": 9246722135, "lat": 51.535377, "lon": -0.0770588}, {"type": "node", "id": 9271846585, "lat": 51.5506612, "lon": -0.0843683}, {"type": "node", "id": 9271846586, "lat": 51.5506512, "lon": -0.0844716}, {"type": "node", "id": 9288578015, "lat": 51.547575, "lon": -0.0757288}, {"type": "node", "id": 9296669279, "lat": 51.5537644, "lon": -0.0881389}, {"type": "node", "id": 9296669280, "lat": 51.5537289, "lon": -0.0882482}, {"type": "node", "id": 9296669281, "lat": 51.5537319, "lon": -0.0882716}, {"type": "node", "id": 9296727174, "lat": 51.5537619, "lon": -0.0885639}, {"type": "node", "id": 9297047071, "lat": 51.5538641, "lon": -0.088218}, {"type": "node", "id": 9297047072, "lat": 51.5538256, "lon": -0.0883404}, {"type": "node", "id": 9363299908, "lat": 51.5407362, "lon": -0.1030559}, {"type": "node", "id": 9363299909, "lat": 51.5407905, "lon": -0.1030689}, {"type": "node", "id": 10037474630, "lat": 51.5589741, "lon": -0.0989231}, {"type": "node", "id": 10092511647, "lat": 51.5361093, "lon": -0.0934055, "tags": {"addr:city": "London", "addr:housenumber": "33", "addr:postcode": "N1 7DU", "addr:street": "Linton Street", "amenity": "pub", "brewery": "madri;birra_moretti;guinness", "name": "The Hanbury", "opening_hours": "Mo 15:00-22:00; Tu-Th 12:00-22:00; Fr-Sa 12:00-23:00; Su 12:00-22:00", "website": "https://www.thehanbury.co.uk/"}}, {"type": "node", "id": 11301330615, "lat": 51.5427754, "lon": -0.0793687}, {"type": "node", "id": 11301330624, "lat": 51.5427007, "lon": -0.0793867}, {"type": "node", "id": 11301330625, "lat": 51.5428342, "lon": -0.0793545}, {"type": "node", "id": 11301330631, "lat": 51.5427041, "lon": -0.0792835}, {"type": "node", "id": 11301330632, "lat": 51.5426902, "lon": -0.0792944}, {"type": "node", "id": 11378235237, "lat": 51.535699, "lon": -0.1028588}, {"type": "node", "id": 11378235238, "lat": 51.5356699, "lon": -0.1027947}, {"type": "node", "id": 11378235240, "lat": 51.5356872, "lon": -0.1027686}, {"type": "node", "id": 11378235241, "lat": 51.5356506, "lon": -0.1027006}, {"type": "node", "id": 11378235242, "lat": 51.535636, "lon": -0.1027223}, {"type": "node", "id": 11845085548, "lat": 51.5338267, "lon": -0.0998369}, {"type": "way", "id": 30729269, "nodes": [339857615, 5174806040, 339857617, 339857621, 339857625, 339857628, 339857631, 339857634, 339857636, 339857615], "tags": {"addr:city": "London", "addr:housenumber": "83", "addr:postcode": "N1 2LY", "addr:street": "St. Paul's Road", "amenity": "pub", "building": "retail", "building:levels": "2", "check_date": "2025-12-15", "diet:vegan": "yes", "diet:vegetarian": "yes", "fhrs:id": "416759", "food": "yes", "indoor_seating": "yes", "name": "The Alwyne Castle", "opening_hours": "Mo-Sa 12:00-23:00; Su 12:00-22:30", "outdoor_seating": "yes", "payment:cards": "yes", "payment:credit_cards": "yes", "payment:debit_cards": "yes", "phone": "+44 20 7359 7351", "ref:GB:uprn": "5300086659", "reservation": "yes", "roof:levels": "0", "smoking": "outside", "source": "Survey of 2013-08-29", "source:addr:postcode": "ONSUD;OS Open UPRN", "toilets": "yes", "toilets:access": "customers", "toilets:wheelchair": "yes", "website": "https://www.thealwynecastleislington.co.uk", "wheelchair": "yes"}}, {"type": "way", "id": 30741911, "nodes": [340003405, 340003406, 340003407, 2568180222, 340003408, 340003405], "tags": {"amenity": "pub", "building": "yes", "name": "The Florence"}}, {"type": "way", "id": 31025059, "nodes": [344953759, 344953758, 344953757, 345406644, 345406646, 344953759], "tags": {"addr:city": "London", "addr:housenumber": "80", "addr:postcode": "N1 0QD", "addr:street": "Liverpool Road", "amenity": "pub", "building": "yes", "name": "The Pig & Butcher", "opening_hours": "Mo-We 12:00-23:00; Th-Sa 12:00-24:00; Su 12:00-23:00", "phone": "+44 20 7226 8304", "smoking": "no", "website": "https://thepigandbutcher.co.uk"}}, {"type": "way", "id": 31052744, "nodes": [345193037, 345193013, 355161461, 345193043, 345193015, 345193050, 345193037], "tags": {"addr:city": "London", "addr:housenumber": "44", "addr:postcode": "N1 1ER", "addr:street": "Barnsbury Street", "addr:suburb": "Islington", "amenity": "pub", "building": "yes", "building:levels": "3", "diet:vegetarian": "yes", "fhrs:id": "570631", "food": "yes", "name": "The Drapers Arms", "opening_hours:kitchen": "Mo-Fr 12:00-15:00,18:00-22:30; Sa 12:00-16:00,19:00-22:30; Su 12:00-20:30", "outdoor_seating": "yes", "phone": "+44 20 7619 0348", "ref:GB:uprn": "5300006921", "source:addr": "FHRS Open Data", "website": "http://www.thedrapersarms.com/", "wikidata": "Q26570177", "wikimedia_commons": "Category:Drapers Arms, Barnsbury"}}, {"type": "way", "id": 31293000, "nodes": [348156004, 27012806, 348156006, 354719629, 348156008, 348156004], "tags": {"addr:city": "London", "addr:housenumber": "207", "addr:postcode": "N1 1RL", "addr:street": "Upper Street", "addr:suburb": "Islington", "amenity": "pub", "brand": "Greene King", "brand:wikidata": "Q5564162", "building": "yes", "building:levels": "4", "fhrs:id": "417154", "food": "yes", "indoor_seating": "yes", "internet_access": "wlan", "name": "Hope & Anchor", "opening_hours": "Mo-Th 12:00-23:00; Fr-Sa 12:00-01:00; Su 12:00-23:00", "outdoor_seating": "yes", "phone": "+44 20 7354 1312", "smoking": "outside", "source:addr": "FHRS Open Data", "toilets": "yes", "toilets:access": "customers", "website": "https://www.greeneking.co.uk/pubs/greater-london/hope-and-anchor", "wikidata": "Q15225054", "wikipedia": "en:Hope and Anchor, Islington"}}, {"type": "way", "id": 31293177, "nodes": [348158890, 348158876, 348158918, 348158917, 348158891, 348158890], "tags": {"addr:city": "London", "addr:housenumber": "235", "addr:postcode": "N1 1RU", "addr:street": "Upper Street", "amenity": "pub", "building": "yes", "indoor_seating": "yes", "name": "The Library", "operator": "Stonegate", "operator:wikidata": "Q7619176", "outdoor_seating": "yes", "website": "https://www.crafted-social.co.uk/library-islington"}}, {"type": "way", "id": 31324086, "nodes": [348713403, 348713553, 348713571, 348713566, 348713403], "tags": {"addr:city": "London", "addr:housenumber": "45-46", "addr:street": "Upper Street", "amenity": "pub", "building": "yes", "check_date": "2025-10-22", "indoor_seating": "yes", "name": "Steam Passage Tavern", "operator": "Stonegate", "operator:wikidata": "Q7619176", "outdoor_seating": "yes", "website": "https://www.greatukpubs.co.uk/steam-passage-angel"}}, {"type": "way", "id": 31340567, "nodes": [299446972, 349050371, 349050372, 349050365, 299446972], "tags": {"addr:city": "London", "addr:housenumber": "82", "addr:street": "Islington High Street", "amenity": "pub", "brand": "Nicholson's", "brand:wikidata": "Q113130666", "building": "yes", "check_date": "2025-10-15", "fhrs:id": "416827", "indoor_seating": "yes", "name": "The York", "operator": "Mitchells & Butlers plc", "outdoor_seating": "yes", "real_ale": "yes", "website": "https://www.nicholsonspubs.co.uk/restaurants/london/theyorkislingtonlondon", "wikidata": "Q26502779"}}, {"type": "way", "id": 31900825, "nodes": [357304387, 8589123814, 357304394, 357304435, 357304397, 357304400, 357304406, 357304423, 357304419, 357304415, 8589123815, 357304391, 357304387], "tags": {"HE_ref": "1478155", "addr:city": "London", "addr:housenumber": "10", "addr:street": "Thornhill Road", "amenity": "pub", "beer_garden": "yes", "building": "yes", "email": "info@the-albion.co.uk", "fhrs:id": "754467", "food": "yes", "listed_status": "Grade II", "name": "The Albion", "outdoor_seating": "yes", "phone": "+44 20 7607 7450", "website": "https://www.the-albion.co.uk/", "wikidata": "Q126190930"}}, {"type": "way", "id": 67449821, "nodes": [308838887, 814275635, 814275692, 814275648, 308838887], "tags": {"addr:city": "London", "addr:housenumber": "87", "addr:postcode": "N1 8HD", "addr:street": "Noel Road", "amenity": "pub", "brewery": "yes", "building": "yes", "fhrs:id": "416773", "food": "yes", "name": "The Island Queen", "phone": "+44 20 7354 8741", "smoking": "no", "website": "https://www.theislandqueenislington.co.uk/", "wheelchair": "limited", "wikidata": "Q17361854"}}, {"type": "way", "id": 68424243, "nodes": [823322621, 252938134, 8701197876, 823322560, 8701197877, 823322591, 823322612, 8701197879, 823322621], "tags": {"addr:city": "London", "addr:housenumber": "84-86", "addr:postcode": "N1 8LU", "addr:street": "Essex Road", "amenity": "pub", "building": "yes", "building:levels": "3", "changing_table": "yes", "check_date": "2024-09-12", "diet:vegan": "yes", "diet:vegetarian": "yes", "food": "yes", "indoor_seating": "yes", "name": "The Alpaca", "opening_hours": "Mo-Fr 12:00-22:00; Sa 10:00-22:00; Su 12:00-22:00", "outdoor_seating": "yes", "payment:credit_cards": "yes", "payment:debit_cards": "yes", "phone": "+44 20 3417 7224", "toilets:wheelchair": "yes", "website": "https://www.thealpaca.co.uk/"}}, {"type": "way", "id": 68510578, "nodes": [6986773788, 823849100, 1642118071, 1642117998, 823849155, 6986773788], "tags": {"addr:city": "London", "addr:housenumber": "52", "addr:postcode": "N1 2HS", "addr:street": "Canonbury Road", "amenity": "pub", "building": "yes", "check_date": "2024-09-12", "email": "info@myddletonarms.com", "fhrs:id": "416442", "indoor_seating": "yes", "internet_access": "wlan", "internet_access:fee": "no", "name": "Myddleton Arms", "outdoor_seating": "yes", "phone": "+44 20 7226 4595", "toilets": "yes", "toilets:access": "customers", "website": "http://myddletonarms.com", "wikidata": "Q26501447"}}, {"type": "way", "id": 71336800, "nodes": [848889237, 848889077, 4538753912, 4538753909, 4538753907, 848889171, 848889157, 848889295, 848889237], "tags": {"addr:city": "London", "addr:housenumber": "72", "addr:postcode": "N1 8PR", "addr:street": "Prebend Street", "amenity": "pub", "building": "yes", "name": "Duchess of Kent", "source": "Yahoo"}}, {"type": "way", "id": 107521318, "nodes": [1235326330, 1235326329, 1235326328, 1235681043, 5195933581, 1235326330], "tags": {"addr:city": "London", "addr:housenumber": "119", "addr:postcode": "N1 4BL", "addr:street": "Balls Pond Road", "amenity": "pub", "building": "yes", "email": "info@thedukeofwellington.london", "fhrs:id": "768338", "name": "The Duke Of Wellington", "opening_hours": "Mo-We 16:00-00:00; Th-Fr 16:00-01:00; Sa 11:00-1:30; Su 11:00-23:30", "phone": "+44 20 7275 7640", "source": "Bing", "website": "http://thedukeofwellington.london"}}, {"type": "way", "id": 119903501, "nodes": [1342109041, 1345654356, 1345654370, 1750188838, 1750188840, 1342109041], "tags": {"addr:city": "London", "addr:housenumber": "77-78", "addr:postcode": "N1 9EX", "addr:street": "Chapel Market", "amenity": "pub", "building": "yes", "indoor_seating": "yes", "name": "The Alma", "outdoor_seating": "yes"}}, {"type": "way", "id": 153027823, "nodes": [1657760824, 1657760815, 1657760811, 1657760807, 1657760797, 1657760814, 1657760822, 1657760816, 1657760824], "tags": {"addr:city": "London", "addr:housenumber": "203", "addr:postcode": "N7 8DL", "addr:street": "Holloway Road", "amenity": "pub", "building": "yes", "building:levels": "3", "fhrs:id": "1135883", "name": "Victoria Tavern"}}, {"type": "way", "id": 188766830, "nodes": [1993922380, 1993922389, 1993922368, 1993932989, 1993922362, 1993922359, 1993922380], "tags": {"addr:city": "London", "addr:housename": "The Perseverance", "addr:housenumber": "194", "addr:postcode": "N1 3HT", "addr:street": "Southgate Road", "amenity": "pub", "building": "retail", "fhrs:id": "536817", "name": "The Hunter S", "outdoor_seating": "yes"}}, {"type": "way", "id": 197691952, "nodes": [2078974510, 2078974427, 2078974482, 2078974393, 2078974507, 2078974510], "tags": {"addr:city": "London", "addr:floor": "0", "addr:housenumber": "382", "addr:postcode": "N1 3PF", "addr:street": "Essex Road", "amenity": "pub", "beer_garden": "yes", "building": "yes", "fhrs:id": "1065766", "name": "Godet", "source:addr": "FHRS Open Data"}}, {"type": "way", "id": 197695792, "nodes": [2078995458, 2078995455, 2078995459, 2490266006, 2078995478, 2078995481, 2078995452, 2078995473, 2078995474, 2078995456, 2078995484, 2078995458], "tags": {"addr:city": "London", "addr:country": "GB", "addr:housenumber": "340-342", "addr:postcode": "N1 3PB", "addr:street": "Essex Road", "amenity": "pub", "building": "yes", "check_date": "2025-05-11", "fhrs:id": "1367928", "food": "yes", "name": "The Brave", "toilets": "yes", "toilets:access": "customers", "website": "https://www.thebravelondon.co.uk/"}}, {"type": "way", "id": 198218569, "nodes": [2083800558, 2083800570, 2083800571, 2083800566, 2083800565, 2083800573, 2083800569, 49481347, 2083800572, 2083800558], "tags": {"addr:city": "London", "addr:housename": "Rosemary Branch Public House", "addr:housenumber": "2", "addr:postcode": "N1 3DT", "addr:street": "Shepperton Road", "addr:suburb": "Islington", "amenity": "pub", "building": "retail", "building:levels": "3", "fhrs:id": "416865", "fhrs:local_authority_id": "PI/000102262", "name": "The Rosemary Branch", "roof:levels": "0", "source": "survey", "source:addr": "FHRS Open Data", "wikidata": "Q7368317", "wikipedia": "en:Rosemary Branch Theatre"}}, {"type": "way", "id": 227827311, "nodes": [2364681552, 3370832364, 3370832367, 3370832369, 2364681549, 2364681561, 2364681563, 3370832365, 2364681552], "tags": {"addr:city": "London", "addr:country": "GB", "addr:housenumber": "59", "addr:postcode": "N1 4QU", "addr:street": "Newington Green Road", "air_conditioning": "yes", "amenity": "pub", "building": "yes", "building:levels": "3", "check_date": "2024-08-14", "cuisine": "american;pizza", "diet:vegetarian": "yes", "dog": "yes", "fhrs:id": "416653", "food": "yes", "indoor_seating": "yes", "name": "The Alma", "outdoor_seating": "yes", "phone": "+44 20 7226 3531", "smoking": "no", "source": "Survey of 2015-02-24", "website": "https://thealmaislington.com", "wheelchair": "yes"}}, {"type": "way", "id": 227830213, "nodes": [2364702720, 2258998548, 2364702722, 2364702716, 2258998571, 2364702718, 2364702712, 2364702714, 2258998543, 2364702709, 2364702720], "tags": {"addr:city": "London", "addr:country": "GB", "addr:housenumber": "75", "addr:postcode": "N5 2NN", "addr:street": "Grosvenor Avenue", "amenity": "pub", "building": "yes", "building:levels": "3", "building:material": "brick", "check_date": "2025-06-23", "contact:phone": "+44 20 7354 9532", "contact:website": "http://www.snootyfoxlondon.co.uk/", "diet:vegan": "no", "diet:vegetarian": "yes", "fhrs:id": "416472", "food": "yes", "indoor_seating": "yes", "name": "The Snooty Fox", "opening_hours": "Mo-Th 16:00-23:00; Fr 16:00-01:00; Sa 12:00-01:00; Su 12:00-22:30", "outdoor_seating": "yes", "roof:colour": "silver", "roof:shape": "flat"}}, {"type": "way", "id": 230252979, "nodes": [2387757387, 2387757393, 2387757361, 2387757435, 2387761780, 2387761785, 2387761787, 2387761781, 2458596795, 2387757387], "tags": {"addr:city": "London", "addr:housenumber": "21", "addr:street": "Canonbury Place", "amenity": "pub", "brewery": "various", "building": "pub", "check_date": "2024-09-12", "diet:vegan": "yes", "diet:vegetarian": "yes", "email": "canonbury@youngs.co.uk", "food": "yes", "indoor_seating": "yes", "name": "The Canonbury Tavern", "outdoor_seating": "yes", "payment:credit_cards": "yes", "payment:debit_cards": "yes", "phone": "+44 20 7704 2887", "real_ale": "yes", "toilets": "yes", "toilets:handwashing": "yes", "website": "https://www.thecanonbury.co.uk/", "wheelchair": "limited", "wikidata": "Q26490080"}}, {"type": "way", "id": 230259989, "nodes": [2387840241, 2387840254, 2387840258, 2387840270, 2387840241], "tags": {"addr:city": "London", "addr:housenumber": "177", "addr:postcode": "N16 9DB", "addr:street": "Green Lanes", "amenity": "pub", "building": "yes", "cuisine": "pizza", "fhrs:id": "1008793", "food": "yes", "indoor_seating": "yes", "name": "Clissold Park Tavern", "outdoor_seating": "yes", "ref:GB:uprn": "5300037734", "roof:colour": "green", "website": "https://clissoldparktavern.com"}}, {"type": "way", "id": 230373565, "nodes": [2388857514, 2388857510, 2388857499, 2388857496, 2388857501, 2388857503, 2388857505, 2388857512, 2417907537, 2417907568, 2388857507, 2417907545, 2388857516, 2388857514], "tags": {"addr:city": "London", "addr:housenumber": "32", "addr:postcode": "N1 2TB", "addr:street": "Canonbury Street", "amenity": "pub", "building": "yes", "building:levels": "3", "check_date": "2025-07-21", "contact:instagram": "marquesscanonbury", "fhrs:id": "417030", "food": "yes", "indoor_seating": "yes", "name": "Marquess Tavern", "opening_hours": "Mo-Th 12:00-23:00; Fr-Sa 12:00-24:00; Su 12:00-22:00", "opening_hours:kitchen": "Mo-Th 12:00-15:00,17:00-21:00; Fr-Sa 12:00-22:00; Su 12:00-21:00", "outdoor_seating": "yes", "phone": "+44 20 3355 0491", "toilets": "yes", "toilets:access": "customers", "website": "https://www.marquesscanonbury.com/", "wikidata": "Q26569367"}}, {"type": "way", "id": 237487429, "nodes": [2453804184, 2453804168, 2453804176, 2453804178, 2453804174, 2453804181, 3761500479, 2453804184], "tags": {"addr:city": "London", "addr:country": "GB", "addr:housenumber": "600", "addr:postcode": "E8 4AH", "addr:street": "Kingsland Road", "amenity": "pub", "building": "yes", "building:levels": "4", "building:material": "brick", "check_date": "2025-08-02", "cuisine": "burger", "diet:vegan": "yes", "fhrs:id": "1493637", "food": "yes", "indoor_seating": "yes", "name": "The Crown and Castle", "note": "Used to be a pub called The Crown and Castle (from 1851 to c. 2005), then Asian restaurant, followed by a Burger restaurant", "opening_hours": "Mo-Th 17:00-22:00; Fr-Su 12:00-22:00", "outdoor_seating": "no", "roof:levels": "0", "website": "https://thecrownandcastle.co.uk/"}}, {"type": "way", "id": 237999207, "nodes": [2458556985, 2458556984, 2458556983, 2458556982, 2458556981, 2458556980, 2458556979, 2458556986, 5226708350, 5226708349, 2458556985], "tags": {"addr:city": "London", "addr:housenumber": "107A", "addr:postcode": "N1 4HT", "addr:street": "Culford Road", "amenity": "pub", "beer_garden": "yes", "building": "yes", "contact:phone": "+44 20 7254 3965", "contact:website": "http://www.thescolthead.co.uk/", "diet:vegetarian": "yes", "fhrs:id": "469803", "food": "yes", "name": "The Scolt Head", "opening_hours": "12:00-24:00", "outdoor_seating": "yes", "real_ale": "yes", "survey:date": "2020-10-20", "toilets:wheelchair": "no", "wheelchair": "limited"}}, {"type": "way", "id": 238385297, "nodes": [2462272897, 2462272885, 2462272895, 2462272904, 2462272871, 2462272873, 2462272879, 2462272912, 2462272855, 2462272905, 2462272883, 2462272910, 2462272897], "tags": {"addr:city": "London", "addr:housenumber": "199", "addr:postcode": "N16 9ES", "addr:street": "Stoke Newington Church Street", "amenity": "pub", "building": "yes", "fhrs:id": "481930", "food": "yes", "name": "Rose & Crown", "openfire": "yes", "real_ale": "yes", "source": "survey", "source:addr": "website", "website": "https://roseandcrownn16.co.uk/", "wheelchair": "no", "wikidata": "Q21008694"}}, {"type": "way", "id": 242607346, "nodes": [4599572794, 2500693747, 2500693746, 2500693744, 2500693751, 2500693750, 4599572794], "tags": {"addr:city": "London", "addr:housenumber": "224-226", "addr:street": "Blackstock Road", "amenity": "pub", "building": "yes", "building:levels": "2", "contact:instagram": "bof_n5", "dog": "no", "fhrs:id": "417054", "internet_access": "wlan", "name": "Bank of Friendship", "name:en": "Bank of Friendship", "opening_hours": "Mo-Th 16:00-00:00, Fr 16:00-01:00, Sa 12:00-01:00, Su 12:00-00:00", "outdoor_seating": "yes", "phone": "+44 20 7226 8711", "reservation": "no", "website": "http://www.bankoffriendship.com/"}}, {"type": "way", "id": 251492809, "nodes": [2577073053, 2577073054, 2577073056, 2577073055, 52715709, 2577073052, 2577073053], "tags": {"addr:city": "London", "addr:housenumber": "2", "addr:postcode": "N16 8JT", "addr:street": "St Jude Street", "amenity": "pub", "building": "yes", "contact:facebook": "https://www.facebook.com/RailwayTavernN16/", "cuisine": "pizza", "diet:vegan": "yes", "diet:vegetarian": "only", "fhrs:id": "1535279", "food": "yes", "name": "Railway Tavern", "old_name": "Old Henry's Freehouse", "opening_hours": "Tu-Fr 16:00-22:00; Sa 14:00-22:00; Su 15:00-22:00", "outdoor_seating": "yes", "phone": "+44 20 3092 3344", "source": "survey on 2007-09-09 with yahoo and gpx support", "toilets": "yes", "toilets:access": "customers"}}, {"type": "way", "id": 262258278, "nodes": [5193721016, 2679357870, 5193721015, 2679185632, 9193849378, 2679185631, 2679185630, 2679185626, 2679185627, 2679185629, 5193721016], "tags": {"addr:city": "London", "addr:housenumber": "372", "addr:postcode": "E8 4DA", "addr:street": "Kingsland Road", "amenity": "pub", "building": "pub", "building:levels": "3", "contact:instagram": "thefoxhackney", "name": "The Fox", "roof:levels": "1"}}, {"type": "way", "id": 262600569, "nodes": [2682534046, 2682534037, 2682534030, 2682534050, 2682534049, 2682534046], "tags": {"addr:city": "London", "addr:country": "GB", "addr:housenumber": "57", "addr:postcode": "N16 8RY", "addr:street": "Allen Road", "amenity": "pub", "building": "yes", "building:levels": "3", "building:material": "brick", "fhrs:id": "606425", "food": "no", "name": "The Shakespeare", "opening_hours": "Mo-Th 17:00-23:00; Fr 16:00-23:00; Sa 14:00-23:00; Su 14:00-22:30", "outdoor_seating": "yes", "phone": "+44 20 7254 4190", "toilets": "yes", "toilets:access": "customers", "website": "https://theshakespeare.co.uk/"}}, {"type": "way", "id": 265265245, "nodes": [2709382372, 2709382373, 2709382374, 2709382375, 2709382376, 9296727174, 2709382377, 2709382372], "tags": {"addr:city": "London", "addr:housenumber": "79", "addr:postcode": "N16 9BU", "addr:street": "Green Lanes", "amenity": "pub", "building": "yes", "building:levels": "2", "fhrs:id": "416665", "name": "The Leconfield", "opening_hours": "Mo-Th 15:00-00:00; Fr 15:00-01:00; Sa 12:00-01:30; Su 12:00-23:00", "phone": "+44 20 7354 2791", "ref:GB:uprn": "5300037658", "roof:levels": "1", "roof:shape": "gabled", "website": "https://www.theleconfieldpub.co.uk/", "wheelchair": "no"}}, {"type": "way", "id": 288355243, "nodes": [2919134724, 9363299908, 9363299909, 2919134728, 2919134730, 2919134725, 2919134724], "tags": {"addr:city": "London", "addr:country": "GB", "addr:housenumber": "163", "addr:postcode": "N1 1US", "addr:street": "Upper Street", "amenity": "pub", "building": "yes", "floor:material": "concrete", "food": "yes", "name": "The Taproom", "opening_hours": "Mo-We 15:00-23:00; Th-Sa 12:00-23:00; Su 12:00-22:30", "outdoor_seating": "yes", "real_ale": "Allegedly 3 or so on gravity, but some taps on front bar are fizzy", "smoking": "no", "source": "Survey of 2014-06-16", "website": "http://thetaprooms.co.uk/", "wheelchair": "limited", "wheelchair:description": "Flat entrance into main bar, steps down to comedy club downstairs"}}, {"type": "way", "id": 299662731, "nodes": [349081333, 3036970648, 349081260, 349081257, 349081344, 3036970649, 349081346, 349081339, 349081310, 349081315, 349081319, 349081325, 349081333], "tags": {"addr:city": "London", "addr:housenumber": "179", "addr:postcode": "N1 1RG", "addr:street": "Upper Street", "addr:suburb": "Islington", "amenity": "pub", "diet:vegan": "yes", "diet:vegetarian": "yes", "fhrs:id": "416535", "food": "yes", "indoor_seating": "yes", "name": "The Vineyard", "operator": "Stonegate", "operator:wikidata": "Q7619176", "outdoor_seating": "yes", "source:addr": "FHRS Open Data", "website": "https://www.crafted-social.co.uk/vineyard-islington"}}, {"type": "way", "id": 374036067, "nodes": [461281890, 11301330631, 11301330632, 11301330624, 11301330615, 11301330625, 3774392248, 461281890], "tags": {"addr:city": "London", "addr:housenumber": "109", "addr:postcode": "N1 4JY", "addr:street": "Mortimer Road", "amenity": "pub", "building": "yes", "building:levels": "3", "contact:instagram": "thetalbotn1", "fhrs:id": "469631", "food": "yes", "indoor_seating": "yes", "name": "The Talbot", "opening_hours": "Mo off; Tu,We 17:00-23:00; Th,Fr 17:00-24:00; Sa 12:00-24:00; Su 12:00-22:30", "outdoor_seating": "yes", "phone": "+44 20 7241 2995", "real_ale": "2", "toilets:wheelchair": "no", "wheelchair": "limited"}}, {"type": "way", "id": 377056423, "nodes": [3761504671, 3761504666, 2259001245, 2259001251, 3761504671], "tags": {"addr:city": "London", "addr:country": "GB", "addr:housenumber": "125", "addr:postcode": "N1 4RA", "addr:street": "Newington Green Road", "amenity": "pub", "building": "yes", "building:levels": "3", "building:material": "brick", "check_date": "2025-08-19", "contact:phone": "+44 20 7096 2250", "contact:website": "https://www.crafted-social.co.uk/cellar-taps-newington-green", "cuisine": "pizza;burger", "diet:vegan": "yes", "diet:vegetarian": "yes", "dog": "leashed", "fhrs:id": "1439965", "food": "yes", "indoor_seating": "yes", "name": "The Cellar Taps", "old_name": "The Edinburgh", "opening_hours": "Su-Th 11:00-23:00; Fr-Sa 11:00-24:00", "operator": "Stonegate", "operator:wikidata": "Q7619176", "outdoor_seating": "yes", "roof:colour": "grey", "roof:levels": "0", "roof:shape": "hipped", "website": "https://www.crafted-social.co.uk/cellar-taps-newington-green", "wheelchair": "limited"}}, {"type": "way", "id": 378840185, "nodes": [2929249740, 3822049940, 3822049944, 3822049941, 3822049942, 2929249741, 2929249740], "tags": {"addr:city": "London", "addr:housenumber": "41", "addr:postcode": "E8 2JS", "addr:street": "Kingsland High Street", "amenity": "pub", "building": "yes", "building:colour": "red", "building:levels": "4", "building:material": "brick", "dog": "yes", "food": "yes", "indoor_seating": "yes", "name": "The Black Eel", "opening_hours": "Mo 16:00-23:00; Tu-We 16:00-23:00; Th-Sa 12:00-24:00; Su 12:00-22:00", "outdoor_seating": "yes", "payment:cash": "no", "payment:credit_cards": "yes", "payment:debit_cards": "yes", "toilets": "yes", "toilets:access": "customers", "toilets:wheelchair": "yes", "website": "https://www.theblackeel.uk/"}}, {"type": "way", "id": 378840186, "nodes": [3822049940, 3822049937, 3822049938, 9288578015, 3822049943, 3822049944, 3822049940], "tags": {"addr:city": "London", "addr:housenumber": "37", "addr:postcode": "E8 2JS", "addr:street": "Kingsland High Street", "amenity": "pub", "building": "yes", "building:colour": "red", "building:levels": "3", "building:material": "brick", "contact:instagram": "burkeswarehouse", "fhrs:id": "469164", "indoor_seating": "yes", "name": "Burkes Warehouse", "outdoor_seating": "yes", "roof:levels": "1"}}, {"type": "way", "id": 381748316, "nodes": [3849165558, 3849165559, 3849165560, 3849165561, 3849165562, 3849165563, 3849165558], "tags": {"addr:city": "London", "addr:housenumber": "1", "addr:postcode": "N16 8NT", "addr:street": "Matthias Road", "amenity": "pub", "building": "yes", "building:colour": "maroon", "building:levels": "2", "building:material": "brick", "contact:facebook": "thearmyandnavydalston", "fhrs:id": "416669", "name": "The Army and Navy", "ref:GB:uprn": "5300060994", "roof:colour": "black", "roof:levels": "2", "roof:material": "roof_tiles", "roof:shape": "hipped", "wikidata": "Q21008634", "wikipedia": "en:Army and Navy, Stoke Newington"}}, {"type": "way", "id": 395000517, "nodes": [3978851556, 3978851546, 3978853848, 3978851545, 3978851548, 3978851555, 3978851556], "tags": {"addr:city": "London", "addr:housenumber": "240", "addr:postcode": "E8 2BS", "addr:street": "Amhurst Road", "amenity": "pub", "building": "commercial", "building:levels": "2", "cuisine": "burger", "diet:vegan": "yes", "diet:vegetarian": "yes", "food": "yes", "indoor_seating": "yes", "name": "Hand of Glory", "opening_hours": "Mo-Th 16:00-24:00; Fr 16:00-01:00; Sa 13:00-01:00; Su 13:00-24:00", "outdoor_seating": "yes", "phone": "+44 20 7249 7455", "roof:levels": "1", "smoking": "outside", "website": "https://www.jaguarshoes.com/venue/hand-of-glory/", "wheelchair": "yes"}}, {"type": "way", "id": 397429638, "nodes": [4002224564, 4002224565, 4002224566, 4002224567, 4002224568, 4002224577, 4002224569, 4002224564], "tags": {"addr:city": "London", "addr:housenumber": "98", "addr:postcode": "N1 4RG", "addr:street": "Newington Green Road", "amenity": "pub", "building": "yes", "building:levels": "3", "building:material": "brick", "contact:phone": "+44 20 7354 9501", "indoor_seating": "yes", "name": "The Weavers Arms", "outdoor_seating": "yes", "ref:GB:uprn": "5300066884", "roof:colour": "black", "roof:shape": "hipped", "smoking": "outside"}}, {"type": "way", "id": 411359426, "nodes": [4130454656, 4130454657, 4130454658, 4130454659, 4130454656], "tags": {"addr:city": "London", "addr:housenumber": "438", "addr:postcode": "E8 4AA", "addr:street": "Kingsland Road", "amenity": "pub", "building": "yes", "facebook": "https://www.facebook.com/thehaggerston/", "fhrs:id": "469831", "indoor_seating": "yes", "name": "The Haggerston", "opening_hours": "Mo-Th 11:00-01:00; Fr-Su 11:00-03:00", "outdoor_seating": "yes", "phone": "+44 20 7249 7625", "toilets:wheelchair": "no", "wheelchair": "no"}}, {"type": "way", "id": 456681384, "nodes": [4529311585, 4529311586, 4529311587, 4529311588, 11378235242, 11378235241, 11378235240, 11378235238, 11378235237, 4529311789, 4529311585], "tags": {"addr:city": "London", "addr:floor": "0", "addr:housenumber": "2", "addr:postcode": "N1 8DY", "addr:street": "Camden Walk", "addr:suburb": "Islington", "amenity": "pub", "brand": "Greene King", "brand:wikidata": "Q5564162", "building": "yes", "building:colour": "red", "building:levels": "3", "building:material": "brick", "check_date": "2024-12-12", "contact:phone": "+44 20 7359 0851", "diet:vegetarian": "yes", "fhrs:id": "416727", "food": "yes", "indoor_seating": "yes", "name": "Camden Head", "opening_hours": "Mo-Tu, Th, Su 12:00-24:00; We 12:00-23:00; Fr-Sa 12:00-01:00", "outdoor_seating": "yes", "roof:colour": "black", "roof:levels": "1", "roof:shape": "gabled", "source:addr": "FHRS Open Data", "toilets": "customers", "toilets:wheelchair": "no", "website": "https://www.greeneking.co.uk/pubs/greater-london/camden-head", "wheelchair": "limited", "wheelchair:description": "No wheelchair toilet, ladies\u2019 toilets downstairs", "wikidata": "Q26585613"}}, {"type": "way", "id": 459672112, "nodes": [4554673482, 4641770298, 8985425860, 4554673483, 4554673484, 4554673485, 4554673486, 4554673482], "tags": {"addr:city": "London", "addr:country": "GB", "addr:housenumber": "48", "addr:postcode": "N16 7XJ", "addr:street": "Stoke Newington Road", "amenity": "pub", "building": "yes", "building:levels": "3", "building:material": "brick", "check_date": "2024-08-25", "cocktails": "yes", "food": "yes", "indoor_seating": "yes", "name": "The Marquee Moon", "outdoor_seating": "yes", "payment:credit_cards": "yes", "payment:debit_cards": "yes", "roof:colour": "black", "roof:levels": "1", "roof:shape": "hipped", "smoking": "outside", "source": "survey on 2007-09-09 with yahoo and gpx support", "toilets": "yes", "toilets:access": "customers", "website": "https://themarqueemoon.uk/"}}, {"type": "way", "id": 466647109, "nodes": [4614045795, 4614045796, 4614045797, 4614045798, 4614045805, 4614045800, 4614045795], "tags": {"addr:city": "London", "addr:country": "GB", "addr:housenumber": "71", "addr:postcode": "E8 2EB", "addr:street": "Shacklewell Lane", "amenity": "pub", "building": "retail", "building:colour": "white", "building:levels": "3", "building:material": "brick", "check_date": "2024-07-02", "contact:website": "http://www.shacklewellarms.com/", "fhrs:id": "1426616", "food": "no", "indoor_seating": "yes", "live_music": "yes", "live_sport": "yes", "name": "The Shacklewell Arms", "opening_hours": "Mo-Th 17:00-24:00; Fr-Sa 16:00-03:00; Su 16:00-24:00", "outdoor_seating": "yes", "payment:credit_cards": "yes", "payment:debit_cards": "yes", "phone": "+44 20 7249 0810", "roof:colour": "grey", "roof:levels": "1", "toilets:wheelchair": "no", "wheelchair": "limited"}}, {"type": "way", "id": 469649790, "nodes": [4639477137, 4639477140, 4639477141, 4639477138, 4639477137], "tags": {"addr:city": "London", "addr:housenumber": "340", "addr:postcode": "E8 4EA", "addr:street": "Acton Mews", "addr:suburb": "Haggerston", "amenity": "pub", "brand": "Signature Brew", "brewery": "Signature Brew", "building": "commercial", "building:levels": "1", "check_date": "2026-01-17", "check_date:diet:vegan": "2026-01-17", "check_date:diet:vegetarian": "2026-01-17", "check_date:smoking": "2026-01-17", "contact:facebook": "https://www.facebook.com/signaturebrewe8", "contact:instagram": "https://www.instagram.com/signaturebrewe8/", "contact:twitter": "signaturebrewe8", "cuisine": "sandwich", "diet:vegan": "yes", "diet:vegetarian": "yes", "fhrs:id": "1468815", "fhrs:local_authority_id": "HAC1153", "food": "yes", "indoor_seating": "yes", "live_music": "yes", "name": "Signature Brew Taproom and Venue", "outdoor_seating": "yes", "real_ale": "yes", "short_name": "Signature Brew", "smoking": "outside", "toilets": "yes", "toilets:wheelchair": "yes", "website": "https://www.signaturebrew.co.uk/pages/the-signature-brew-taproom-venue-in-haggerston-east-london"}}, {"type": "way", "id": 469650891, "nodes": [279104460, 4639487527, 4639487528, 8881466450, 4639487529, 279104460], "tags": {"addr:city": "London", "addr:housenumber": "55", "addr:postcode": "N1 5RA", "addr:street": "Orsman Road", "amenity": "pub", "building": "yes", "fhrs:id": "468869", "name": "The Stag's Head", "toilets": "yes", "toilets:access": "customers", "wheelchair": "no", "wikidata": "Q21008705"}}, {"type": "way", "id": 469650895, "nodes": [4639487548, 8871554145, 4639487552, 4639487547, 4639487546, 4639487548], "tags": {"addr:city": "London", "addr:housenumber": "281", "addr:postcode": "E2 8AS", "addr:street": "Kingsland Road", "amenity": "pub", "building": "yes", "building:levels": "3", "contact:facebook": "TheGloryLondon", "contact:instagram": "thegloryldn", "contact:twitter": "theglorylondon", "email": "info@theglory.co", "lgbtq": "primary", "min_age": "18", "name": "The Glory", "opening_hours": "Mo 17:00-23:00; Tu-Th 17:00-24:00; Fr-Sa 17:00-27:00; Su 14:00-23:00", "phone": "+44 20 7684 0794", "was:name": "The Paradise Inn", "was:name:2": "The Victory", "website": "https://www.theglory.co"}}, {"type": "way", "id": 469688061, "nodes": [459799097, 4639875843, 4639875844, 4639875845, 9271846585, 9271846586, 4639875842, 4639875846, 459799097], "tags": {"addr:city": "London", "addr:housenumber": "92", "addr:postcode": "N1 4PR", "addr:street": "Mildmay Park", "amenity": "pub", "building": "yes", "building:levels": "3", "check_date": "2024-10-17", "diet:vegetarian": "yes", "fhrs:id": "447763", "food": "yes", "indoor_seating": "yes", "internet_access": "wlan", "name": "Lady Mildmay", "old_name": "The Dissenting Academy;The Nobody Inn;The Clarendon", "opening_hours": "Mo-Sa 12:00-23:00; Su 12:00-22:00", "opening_hours:kitchen": "Mo-Sa 12:00-15:00,18:00-22:00; Su 12:30-16:00,18:00-21:00", "outdoor_seating": "no", "payment:cash": "no", "payment:credit_cards": "yes", "payment:debit_cards": "yes", "phone": "+44 20 7241 6238", "reservation": "no", "toilets:wheelchair": "yes", "website": "https://www.ladymildmay.com/", "wheelchair": "yes"}}, {"type": "way", "id": 474422893, "nodes": [462012138, 4683832683, 9103717546, 4683832684, 4683832685, 4683832686, 4683832687, 462012138], "tags": {"addr:city": "London", "addr:housenumber": "33", "addr:postcode": "N1 5AA", "addr:street": "Downham Road", "amenity": "pub", "building": "yes", "fhrs:id": "1149792", "food": "yes", "indoor_seating": "yes", "name": "Duke of York", "outdoor_seating": "yes", "toilets:wheelchair": "no", "website": "https://www.thedukeofyorkpub.com/", "wheelchair": "yes"}}, {"type": "way", "id": 531572661, "nodes": [52813523, 5159954235, 5159954236, 5159954237, 5159954238, 5159954239, 5159954240, 5159954241, 52813523], "tags": {"addr:city": "London", "addr:housenumber": "451", "addr:postcode": "E8 3AS", "addr:street": "Queensbridge Road", "amenity": "pub", "building": "retail", "building:levels": "2", "fhrs:id": "470727", "indoor_seating": "yes", "live_music": "yes", "name": "The Victoria", "opening_hours": "Mo-Th 12:00-01:00; Fr-Sa 12:00-02:00; Su 12:00-01:00", "opening_hours:signed": "no", "outdoor_seating": "yes", "phone": "+44 20 7684 0944", "roof:levels": "0", "website": "https://www.jaguarshoes.com/venues/the-victoria/", "wheelchair": "no"}}, {"type": "way", "id": 536043069, "nodes": [5193720991, 2780276619, 5193720992, 5193720990, 5194508624, 5193720991], "tags": {"addr:city": "London", "addr:housename": "The De Beauvoir Arms", "addr:housenumber": "113", "addr:postcode": "N1 3JS", "addr:street": "Southgate Road", "amenity": "pub", "building": "residential", "building:levels": "3", "food": "yes", "indoor_seating": "yes", "name": "The De Beauvoir Arms", "opening_hours": "Mo-Th 12:00-23:00; Fr-Sa 12:00-24:00; Su 12:00-22:00", "opening_hours:kitchen": "Mo-Sa 12:00-16:00,18:00-22:00; Su 12:00-16:00,18:00-21:00", "outdoor_seating": "yes", "phone": "+44 20 7359 7392", "roof:levels": "0", "start_date": "1854", "website": "https://www.debeauvoirarms.com/"}}, {"type": "way", "id": 536399756, "nodes": [30386293, 5196300134, 5196300129, 5196300133, 5196300132, 30386293], "tags": {"addr:city": "London", "addr:housenumber": "59", "addr:postcode": "N16 0EB", "addr:street": "Kynaston Road", "amenity": "pub", "building": "yes", "building:levels": "3", "email": "info@theprincen16.com", "fhrs:id": "469729", "food": "yes", "indoor_seating": "yes", "name": "The Prince", "phone": "+44 20 7043 5210", "source": "survey", "source:name": "voice", "website": "https://www.theprincen16.com/"}}, {"type": "way", "id": 660792782, "nodes": [262637189, 6186632439, 6186632438, 6186632437, 6186632436, 6186632435, 262637189], "tags": {"addr:city": "London", "addr:housenumber": "132", "addr:postcode": "N16 0JX", "addr:street": "Stoke Newington Church Street", "amenity": "pub", "building": "pub", "fhrs:id": "469091", "name": "The Lion", "source:addr": "FHRS Open Data", "website": "http://www.thelionn16.co.uk/"}}, {"type": "way", "id": 779442726, "nodes": [426824806, 7278465734, 7278465733, 7278465729, 7278465727, 10037474630, 426824806], "tags": {"addr:city": "London", "addr:housenumber": "204", "addr:postcode": "N5 1EN", "addr:street": "Blackstock Road", "amenity": "pub", "building": "yes", "building:levels": "2", "fhrs:id": "1535296", "name": "The Gunners", "outdoor_seating": "yes", "website": "http://www.gunnerspubhighbury.co.uk"}}, {"type": "way", "id": 816170887, "nodes": [262637212, 7622583697, 7622583698, 7622583699, 7622583700, 7622583695, 7622583694, 7622583702, 6031881517, 7622583701, 262637212], "tags": {"addr:city": "London", "addr:housenumber": "175", "addr:postcode": "N16 0LH", "addr:street": "Stoke Newington High Street", "amenity": "pub", "building": "yes", "diet:vegan": "yes", "diet:vegetarian": "yes", "fhrs:id": "469694", "food": "yes", "name": "The Three Crowns", "opening_hours": "Mo-We 16:00-00:00, Th 16:00-01:00, Fr 16:00-02:30, Sa 12:00-02:30, Su 12:00-23:00", "toilets": "yes", "toilets:access": "customers", "website": "https://www.threecrownsn16.com/", "wheelchair": "limited"}}, {"type": "way", "id": 863500628, "nodes": [8043930227, 8043930228, 8043930229, 8043930230, 8043930227], "tags": {"addr:city": "London", "addr:housenumber": "99", "addr:postcode": "E8 1NH", "addr:street": "Dalston Lane", "amenity": "pub", "building": "retail", "building:levels": "2", "diet:vegan": "yes", "diet:vegetarian": "yes", "fhrs:id": "468764", "indoor_seating": "yes", "name": "The Three Compasses", "outdoor_seating": "yes", "phone": "+44 20 7923 4752", "roof:levels": "1", "smoking": "outside", "source:addr:housenumber": "interpolation", "source:addr:postcode": "FHRS opendata", "website": "https://www.3compasses.com/"}}, {"type": "way", "id": 925218087, "nodes": [660897081, 8586640463, 8586640464, 8586640465, 8586640467, 8586640474, 8586640473, 8586640466, 5196299002, 660897081], "tags": {"addr:city": "London", "addr:housenumber": "69", "addr:postcode": "N16 8EL", "addr:street": "Stoke Newington High Street", "amenity": "pub", "building": "yes", "building:levels": "3", "diet:vegetarian": "yes", "fhrs:id": "470650", "food": "yes", "name": "The White Hart", "outdoor_seating": "yes", "phone": "+44 20 7254 6626", "website": "https://whitehartstokenewington.com", "wheelchair": "yes"}}, {"type": "way", "id": 935053788, "nodes": [8665049650, 8665049651, 8665049652, 8665049654, 8665040479, 8665040478, 8665049653, 8665049650], "tags": {"addr:city": "London", "addr:housenumber": "175", "addr:postcode": "N4 2JS", "addr:street": "Blackstock Road", "amenity": "pub", "building": "retail", "building:levels": "3", "check_date": "2023-08-30", "internet_access": "wlan", "name": "Brook Gate", "opening_hours": "Mo-Th 11:00-24:00; Fr,Sa 11:00-01:00; Su 12:00-24:00", "operator": "Stonegate", "operator:wikidata": "Q7619176", "outdoor_seating": "yes", "roof:levels": "0", "sport": "billiards", "toilets:wheelchair": "yes", "website": "https://www.craftunionpubs.com/brook-gate-finsbury-park"}}, {"type": "way", "id": 952014248, "nodes": [8811796062, 8811796066, 8811796050, 8811796051, 8811796065, 8811796061, 8811796062], "tags": {"amenity": "pub", "building": "yes", "name": "The Woodbine", "opening_hours": "Mo-We 16:00-24:00, Th 16:00-01:00, Fr 15:00-02:00, Sa 12:00-02:00, Su 12:00-24:00"}}, {"type": "way", "id": 953306259, "nodes": [2458529656, 472616746, 8823730492, 8823730493, 8823730494, 2458529656], "tags": {"addr:city": "London", "addr:housenumber": "316", "addr:street": "Queensbridge Road", "amenity": "pub", "building": "yes", "building:levels": "3", "diet:vegetarian": "yes", "fhrs:id": "1212432", "food": "yes", "indoor_seating": "yes", "name": "The Duke of Richmond", "opening_hours": "Mo-Th 16:00-22:30; Fr,Sa 12:00-22:30; Su 12:00-22:00", "outdoor_seating": "yes", "phone": "+44 20 7923 3990", "roof:shape": "gabled", "website": "https://www.thedukeofrichmond.com", "wikidata": "Q26528639"}}, {"type": "way", "id": 956665216, "nodes": [2458507868, 448376691, 8853725945, 8853725946, 2458507843, 2458507868], "tags": {"addr:city": "London", "addr:housenumber": "95", "addr:postcode": "E8 3BH", "addr:street": "Forest Road", "amenity": "pub", "building": "retail", "building:levels": "3", "check_date": "2025-08-08", "cocktails": "yes", "dog": "yes", "email": "theprincearthure8@tinydancergroup.co.uk", "fhrs:id": "1334732", "food": "yes", "indoor_seating": "yes", "name": "The Prince Arthur", "opening_hours": "Mo-Sa 12:00-23:00; Su 12:00-22:00", "outdoor_seating": "yes", "payment:credit_cards": "yes", "payment:debit_cards": "yes", "phone": "+44 20 7249 1119", "reservation": "yes", "toilets:wheelchair": "no", "website": "https://www.theprincearthure8.com/", "wheelchair": "limited"}}, {"type": "way", "id": 957099697, "nodes": [91189178, 8856498599, 8856498600, 8856498601, 8856498602, 91189178], "tags": {"addr:city": "London", "addr:housenumber": "36", "addr:postcode": "N16 0SS", "addr:street": "Barbauld Road", "amenity": "pub", "building": "yes", "building:levels": "3", "fhrs:id": "470333", "name": "The Londesborough", "toilets": "yes", "toilets:access": "customers", "website": "https://www.thelondesborough.com/"}}, {"type": "way", "id": 970859357, "nodes": [2458507864, 53428908, 8985341482, 8985341483, 8985341484, 8985341485, 2458507904, 2458507864], "tags": {"addr:city": "London", "addr:housenumber": "40", "addr:street": "Parkholme Road", "amenity": "pub", "building": "yes", "building:levels": "2", "diet:vegan": "yes", "diet:vegetarian": "yes", "food": "yes", "indoor_seating": "yes", "name": "Prince George", "opening_hours": "Mo-Th 16:00-23:00, Fr,Sa 12:00-24:00, Su 12:00-22:00", "outdoor_seating": "yes", "phone": "+44 20 7254 6060", "toilets": "yes", "toilets:access": "customers", "website": "https://theprincegeorgepub.co.uk/", "wheelchair": "no"}}, {"type": "way", "id": 982457191, "nodes": [822169371, 822169379, 822169363, 822169335, 822169316, 822169352, 822169334, 822169329, 822169371], "tags": {"addr:city": "London", "addr:housenumber": "44", "addr:street": "Essex Road", "amenity": "pub", "building": "yes", "check_date": "2024-09-12", "fhrs:id": "416731", "food": "yes", "indoor_seating": "yes", "internet_access": "wlan", "internet_access:access": "customers", "internet_access:wlan:key": "superman", "karaoke": "yes", "name": "The Old Queen's Head", "opening_hours": "Su-We 12:00-00:00; Th 12:00-01:00, Fr 12:00-02:00, Sa 12:00-03:00", "outdoor_seating": "yes", "phone": "+44 20 7354 9993", "toilets": "yes", "toilets:access": "customers", "website": "https://www.theoldqueenshead.com/", "wikidata": "Q7754896", "wikipedia": "en:The Old Queens Head"}}, {"type": "way", "id": 1001831569, "nodes": [279104455, 9246722118, 9246722121, 9246722119, 9246722135, 9246722120, 9246722134, 279104455], "tags": {"addr:city": "London", "addr:housenumber": "257", "addr:postcode": "E2 8AS", "addr:street": "Kingsland Road", "amenity": "pub", "building": "yes", "fhrs:id": "719748", "name": "The Kings Head", "toilets": "yes", "toilets:access": "customers", "website": "https://thekingshead-london.com/"}}, {"type": "way", "id": 1007692612, "nodes": [9297047071, 9296669279, 9296669280, 9296669281, 9297047072, 9297047071], "tags": {"amenity": "pub", "building": "yes", "building:levels": "3", "food": "yes", "name": "BeBopaLula", "old_name": "The Monarch", "phone": "+44 20 7249 6764", "roof:levels": "1", "website": "https://thebeboppub.com/"}}, {"type": "way", "id": 1018511173, "nodes": [339863105, 339863104, 672922150, 2514068138, 2514068139, 3338381455, 2514068133, 2514068134, 2514068137, 2514068141, 2514068140, 2514068135, 339863107, 339863116, 339863105], "tags": {"amenity": "pub", "brand": "Brewhouse & Kitchen", "brand:wikidata": "Q110420544", "check_date": "2024-12-12", "indoor_seating": "yes", "microbrewery": "yes", "name": "Brewhouse & Kitchen Highbury", "opening_hours": "Mo-Th 11:00-23:00; Fr,Sa 11:00-00:00; Su 12:00-22:30", "opening_hours:kitchen": "Mo-Sa 12:00-22:00; Su 12:00-21:00", "outdoor_seating": "yes", "phone": "+44 20 7226 1026", "toilets": "yes", "toilets:access": "customers"}}, {"type": "way", "id": 1275812271, "nodes": [560726500, 560726499, 375848872, 11845085548, 560726500], "tags": {"addr:city": "London", "addr:housenumber": "25", "addr:postcode": "N1 8LE", "addr:street": "Danbury Street", "amenity": "pub", "building": "retail", "building:levels": "3", "check_date": "2024-04-24", "email": "earl@earlofessex.net", "food": "yes", "indoor_seating": "yes", "name": "Earl of Essex", "opening_hours": "Fr-Sa 12:00-24:00; Su-Th 12:00-23:00", "opening_hours:kitchen": "Mo-Sa 12:00-22:00; Su-12:00-21:00", "outdoor_seating": "yes", "payment:american_express": "no", "phone": "+44 20 7424 5828", "roof:levels": "1", "source": "survey", "website": "https://www.earlofessex.net/", "wheelchair": "limited"}}]}